{
  "type": "FeatureCollection",
  "title": "Aetolian League",
  "id": "104777481",
  "bbox": [
    20.989927,
    38.399726,
    29.15639,
    40.432469
  ],
  "description": "Based in Aetolia in central Greece, the Aetolian League was founded in the Hellenistic period to counter the power of Macedon and the Achaean League. It was allied with Rome in the First Macedonian War (215-205 BCE), but later was opposed to the republic in Rome's war against Antiochos (192–188 BCE). After Rome's victory in 188, the Aetolian League was fully subordinate to Rome.",
  "connectsWith": [
    "540591"
  ],
  "names": [
    "Aetolian League"
  ],
  "features": [
    {
      "type": "Feature",
      "geometry": {
        "type": "Point",
        "coordinates": [
          22.7018161485,
          39.0181402234
        ]
      },
      "properties": {
        "description": "representative point"
      }
    }
  ]
}