{
  "type": "FeatureCollection",
  "title": "Unnamed bridge",
  "id": "110240",
  "bbox": [
    8.2827325,
    49.6669237,
    11.3976871,
    50.1649059
  ],
  "description": "An ancient place, cited: BAtlas 11 I2 unnamed bridge (over Moenus fl., at Castellum Mattiacorum)",
  "connectsWith": [
    "108864",
    "109168"
  ],
  "features": [
    {
      "type": "Feature",
      "geometry": {
        "type": "Point",
        "coordinates": [
          9.04646547448,
          49.98112544
        ]
      },
      "properties": {
        "description": "representative point"
      }
    },
    {
      "geometry": {
        "type": "Polygon",
        "coordinates": [
          [
            [
              8.0,
              50.0
            ],
            [
              8.0,
              51.0
            ],
            [
              9.0,
              51.0
            ],
            [
              9.0,
              50.0
            ],
            [
              8.0,
              50.0
            ]
          ]
        ]
      },
      "id": "undetermined",
      "type": "Feature",
      "properties": {
        "description": null,
        "location_precision": "rough",
        "title": "Undetermined location",
        "link": "http://pleiades.stoa.org/places/110240/undetermined"
      }
    }
  ]
}