{
  "type": "FeatureCollection",
  "title": "Galaigia/Kalaigia",
  "id": "123092",
  "description": "An unlocated place in Germania mentioned by Ptolemy. Müller notes the manuscript variant Kalaigia, but prefers Galaigia. BAtlas registered only Kalaigia.",
  "names": [
    "Galaigia",
    "Kalaigia"
  ],
  "features": [
    {
      "type": "Feature",
      "geometry": null,
      "properties": {
        "description": "representative point"
      }
    },
    {
      "geometry": null,
      "id": "batlas-location",
      "type": "Feature",
      "properties": {
        "description": null,
        "location_precision": "unlocated",
        "title": "Barrington Atlas location",
        "link": "http://pleiades.stoa.org/places/123092/batlas-location"
      }
    }
  ]
}