{
  "type": "FeatureCollection",
  "title": "Hippodrome of Olympia",
  "id": "124732691",
  "bbox": [
    21.6336,
    37.637,
    21.6336,
    37.637
  ],
  "description": "Horse and chariot racing track for the Olympian Games in Olympia. East of the Altis and south of the Stadium. Now mostly destroyed.",
  "connectsWith": [
    "570531"
  ],
  "features": [
    {
      "type": "Feature",
      "geometry": {
        "type": "Point",
        "coordinates": [
          21.6336,
          37.637
        ]
      },
      "properties": {
        "description": "representative point"
      }
    },
    {
      "geometry": {
        "type": "Point",
        "coordinates": [
          21.6336,
          37.637
        ]
      },
      "id": "topostext-location",
      "type": "Feature",
      "properties": {
        "description": "Representative location derived from Topostext",
        "location_precision": "precise",
        "title": "Topostext Location",
        "link": "http://pleiades.stoa.org/places/124732691/topostext-location"
      }
    }
  ]
}