{
  "type": "FeatureCollection",
  "title": "Klimonas",
  "id": "13818292",
  "bbox": [
    33.133736,
    34.71255,
    33.133736,
    34.71255
  ],
  "description": "An early farming village in Cyprus dating to the ninth millennium BC.",
  "connectsWith": [
    "707498"
  ],
  "names": [
    "Klimonas"
  ],
  "features": [
    {
      "type": "Feature",
      "geometry": {
        "type": "Point",
        "coordinates": [
          33.133736,
          34.71255
        ]
      },
      "properties": {
        "description": "representative point"
      }
    },
    {
      "geometry": {
        "type": "Point",
        "coordinates": [
          33.133736,
          34.71255
        ]
      },
      "id": "imagery-location-of-klimonas",
      "type": "Feature",
      "properties": {
        "description": "Coordinates following GeoHack",
        "location_precision": "precise",
        "title": "Imagery location of Klimonas",
        "link": "http://pleiades.stoa.org/places/13818292/imagery-location-of-klimonas"
      }
    }
  ]
}