{
  "type": "FeatureCollection",
  "title": "Ouidana Limen",
  "id": "138506",
  "bbox": [
    -2.866666,
    47.55,
    -2.866666,
    47.55
  ],
  "description": "An ancient place, cited: BAtlas 14 C1 Ouidana Limen",
  "names": [
    "Ouidana Limen",
    "Ouidana Limen"
  ],
  "features": [
    {
      "type": "Feature",
      "geometry": {
        "type": "Point",
        "coordinates": [
          -2.866666,
          47.55
        ]
      },
      "properties": {
        "description": "representative point"
      }
    },
    {
      "geometry": {
        "type": "Point",
        "coordinates": [
          -2.866666,
          47.55
        ]
      },
      "id": "darmc-location-10170",
      "type": "Feature",
      "properties": {
        "description": "1:1 million scale representative point location digitized from the Barrington Atlas of the Greek and Roman World by the Digital Atlas of Roman and Medieval Civilizations project at Harvard University.",
        "location_precision": "precise",
        "title": "DARMC location 10170",
        "link": "http://pleiades.stoa.org/places/138506/darmc-location-10170"
      }
    }
  ]
}