{
  "type": "FeatureCollection",
  "title": "Ernaginum",
  "id": "148074",
  "bbox": [
    4.693318,
    43.7666736,
    4.6980992,
    43.767521
  ],
  "description": "Ernaginum was a road station in the territory of the Salyes in Gallia Narbonensis, according to Ptolemy.",
  "names": [
    "Ernaginon",
    "Ernaginum"
  ],
  "features": [
    {
      "type": "Feature",
      "geometry": {
        "type": "Point",
        "coordinates": [
          4.6957086,
          43.7670973
        ]
      },
      "properties": {
        "description": "representative point"
      }
    },
    {
      "geometry": {
        "type": "Point",
        "coordinates": [
          4.693318,
          43.767521
        ]
      },
      "id": "darmc-location-8589",
      "type": "Feature",
      "properties": {
        "description": "1:500,000 scale representative point location digitized from the Barrington Atlas of the Greek and Roman World by the Digital Atlas of Roman and Medieval Civilizations project at Harvard University.",
        "location_precision": "precise",
        "title": "DARMC location 8589",
        "link": "http://pleiades.stoa.org/places/148074/darmc-location-8589"
      }
    },
    {
      "geometry": {
        "type": "Point",
        "coordinates": [
          4.6980992,
          43.7666736
        ]
      },
      "id": "dare-location",
      "type": "Feature",
      "properties": {
        "description": "Representative point location, site precision",
        "location_precision": "precise",
        "title": "DARE Location",
        "link": "http://pleiades.stoa.org/places/148074/dare-location"
      }
    }
  ]
}