{
  "type": "FeatureCollection",
  "title": "Jemelle villa rustica",
  "id": "191387727",
  "bbox": [
    5.2405117,
    50.1614046,
    5.2405117,
    50.1614046
  ],
  "description": "A large Gallo-Roman villa located in what is now Belgium.",
  "features": [
    {
      "type": "Feature",
      "geometry": {
        "type": "Point",
        "coordinates": [
          5.2405117,
          50.1614046
        ]
      },
      "properties": {
        "description": "representative point"
      }
    },
    {
      "geometry": {
        "type": "Point",
        "coordinates": [
          5.2405117,
          50.1614046
        ]
      },
      "id": "osm-location",
      "type": "Feature",
      "properties": {
        "description": "Location based on OpenStreetMap",
        "location_precision": "precise",
        "title": "OSM location of Jemelle villa rustica",
        "link": "http://pleiades.stoa.org/places/191387727/osm-location"
      }
    }
  ]
}