{
  "type": "FeatureCollection",
  "title": "Lopsica",
  "id": "197358",
  "bbox": [
    14.92,
    44.928868,
    14.92,
    44.928868
  ],
  "description": "An ancient place, cited: BAtlas 20 B5 Lopsica",
  "names": [
    "Lopsika",
    "Lopsica"
  ],
  "features": [
    {
      "type": "Feature",
      "geometry": {
        "type": "Point",
        "coordinates": [
          14.92,
          44.928868
        ]
      },
      "properties": {
        "description": "representative point"
      }
    },
    {
      "geometry": {
        "type": "Point",
        "coordinates": [
          14.92,
          44.928868
        ]
      },
      "id": "darmc-location-13525",
      "type": "Feature",
      "properties": {
        "description": "1:1 million scale representative point location digitized from the Barrington Atlas of the Greek and Roman World by the Digital Atlas of Roman and Medieval Civilizations project at Harvard University.",
        "location_precision": "precise",
        "title": "DARMC location 13525",
        "link": "http://pleiades.stoa.org/places/197358/darmc-location-13525"
      }
    }
  ]
}