{
  "type": "FeatureCollection",
  "title": "Vetus Salina",
  "id": "197580",
  "bbox": [
    18.865089,
    47.119577,
    18.86527,
    47.12975
  ],
  "description": "Vetus Salina was the site of a Roman castrum on the frontier of Pannonia Inferior.",
  "names": [
    "Salinon",
    "Salinum",
    "Vetus Salina",
    "Adony",
    "Vetusallo"
  ],
  "features": [
    {
      "type": "Feature",
      "geometry": {
        "type": "Point",
        "coordinates": [
          18.8651795,
          47.1246635
        ]
      },
      "properties": {
        "description": "representative point"
      }
    },
    {
      "geometry": {
        "type": "Point",
        "coordinates": [
          18.86527,
          47.119577
        ]
      },
      "id": "darmc-location-8424",
      "type": "Feature",
      "properties": {
        "description": "1:1 million scale representative point location digitized from the Barrington Atlas of the Greek and Roman World by the Digital Atlas of Roman and Medieval Civilizations project at Harvard University.",
        "location_precision": "precise",
        "title": "DARMC location 8424",
        "link": "http://pleiades.stoa.org/places/197580/darmc-location-8424"
      }
    },
    {
      "geometry": {
        "type": "Point",
        "coordinates": [
          18.865089,
          47.12975
        ]
      },
      "id": "dare-location",
      "type": "Feature",
      "properties": {
        "description": "Representative point location, site precision",
        "location_precision": "precise",
        "title": "DARE Location",
        "link": "http://pleiades.stoa.org/places/197580/dare-location"
      }
    }
  ]
}