{
  "type": "FeatureCollection",
  "title": "KS-108",
  "id": "209019254",
  "bbox": [
    48.5221613,
    32.2017681,
    48.5239989,
    32.2030271
  ],
  "description": "Archaeological site in Khuzestan with signs of habitaiton during the 4th millennium BCE; locally known as Chogha Kabira or Tepe Kirub.",
  "features": [
    {
      "type": "Feature",
      "geometry": {
        "type": "Point",
        "coordinates": [
          48.5230769605,
          32.2024181438
        ]
      },
      "properties": {
        "description": "representative point"
      }
    },
    {
      "geometry": {
        "type": "LineString",
        "coordinates": [
          [
            48.5221613,
            32.2023666
          ],
          [
            48.5223646,
            32.2022084
          ],
          [
            48.5228769,
            32.2019745
          ],
          [
            48.5236005,
            32.2017681
          ],
          [
            48.5238932,
            32.2020226
          ],
          [
            48.5239989,
            32.2023047
          ],
          [
            48.523755,
            32.2027382
          ],
          [
            48.5232265,
            32.2028689
          ],
          [
            48.5224134,
            32.2030271
          ],
          [
            48.5222508,
            32.2027726
          ],
          [
            48.5221613,
            32.2023666
          ]
        ]
      },
      "id": "ks-108-north-mound",
      "type": "Feature",
      "properties": {
        "description": "Polygon representing the visible remains of the northern (primary) mound of the KS-108 site, derived from an OpenStreetMap Way after Alizadeh 2026.",
        "location_precision": "precise",
        "title": "OSM location of KS-108 (north mound)",
        "link": "http://pleiades.stoa.org/places/209019254/ks-108-north-mound"
      }
    }
  ]
}