{
  "type": "FeatureCollection",
  "title": "KS-04",
  "id": "209019253",
  "bbox": [
    48.490722,
    32.1596836,
    48.493769,
    32.1632439
  ],
  "description": "Archaeological site designation of a settlement inhabited in the 6th-4th millennia BCE, locally known as Chogha Do Sar.",
  "names": [
    "Chogha Do Sar"
  ],
  "features": [
    {
      "type": "Feature",
      "geometry": {
        "type": "Point",
        "coordinates": [
          48.4922395261,
          32.1614903739
        ]
      },
      "properties": {
        "description": "representative point"
      }
    },
    {
      "geometry": {
        "type": "LineString",
        "coordinates": [
          [
            48.490722,
            32.1632439
          ],
          [
            48.4914301,
            32.1609733
          ],
          [
            48.4923528,
            32.1600469
          ],
          [
            48.4928463,
            32.1597017
          ],
          [
            48.4930395,
            32.1596836
          ],
          [
            48.4935115,
            32.1598652
          ],
          [
            48.4936832,
            32.160283
          ],
          [
            48.493769,
            32.1607735
          ],
          [
            48.4934472,
            32.1616091
          ],
          [
            48.4928893,
            32.162263
          ],
          [
            48.490722,
            32.1632439
          ]
        ]
      },
      "id": "ks-04",
      "type": "Feature",
      "properties": {
        "description": "Polygon representing the visible remains at the KS-04 site, derived from an OpenStreetMap Way after Alizadeh 2026.",
        "location_precision": "precise",
        "title": "OSM location of KS-04",
        "link": "http://pleiades.stoa.org/places/209019253/ks-04"
      }
    }
  ]
}