{
  "type": "FeatureCollection",
  "title": "Atrium Libertatis",
  "id": "210292052",
  "description": "Built first in the late third century BCE, the Atrium Libertatis was the headquarters of the censors, as well as an archive and public library. Asinius Pollio expanded the complex in 39 BCE.",
  "connectsWith": [
    "423025"
  ],
  "names": [
    "atrium Libertatis"
  ],
  "features": [
    {
      "type": "Feature",
      "geometry": null,
      "properties": {
        "description": "representative point"
      }
    }
  ]
}