{
  "type": "FeatureCollection",
  "title": "Ouakontion",
  "id": "211445",
  "bbox": [
    12.2530128,
    45.5436389,
    18.9296371,
    46.8329693
  ],
  "description": "An ancient place, cited: BAtlas 21 unlocated Ouakontion",
  "connectsWith": [
    "197253"
  ],
  "names": [
    "Ouakontion",
    "Vacontium",
    "Ouakontion"
  ],
  "features": [
    {
      "type": "Feature",
      "geometry": {
        "type": "Point",
        "coordinates": [
          15.511524639,
          46.3155821279
        ]
      },
      "properties": {
        "description": "representative point"
      }
    },
    {
      "geometry": null,
      "id": "undetermined",
      "type": "Feature",
      "properties": {
        "description": null,
        "location_precision": "unlocated",
        "title": "Undetermined location",
        "link": "http://pleiades.stoa.org/places/211445/undetermined"
      }
    }
  ]
}