{
  "type": "FeatureCollection",
  "title": "Monte di Terra tomb",
  "id": "212589831",
  "bbox": [
    12.5927913,
    41.7870164,
    12.5931749,
    41.7872964
  ],
  "description": "A monumental Roman tomb located at the ninth mile of the Via Appia, the Monte di Terra tomb rests on a quadrangular podium in peperino stone that supports a circular concrete core and an earthen tumulus.",
  "connectsWith": [
    "356966898"
  ],
  "features": [
    {
      "type": "Feature",
      "geometry": {
        "type": "Point",
        "coordinates": [
          12.5929830544,
          41.7871543374
        ]
      },
      "properties": {
        "description": "representative point"
      }
    },
    {
      "geometry": {
        "type": "LineString",
        "coordinates": [
          [
            12.5930005,
            41.7872964
          ],
          [
            12.593089,
            41.7872684
          ],
          [
            12.5931534,
            41.7872244
          ],
          [
            12.5931749,
            41.7871444
          ],
          [
            12.5931319,
            41.7870544
          ],
          [
            12.5930622,
            41.7870164
          ],
          [
            12.5929656,
            41.7870164
          ],
          [
            12.5928798,
            41.7870484
          ],
          [
            12.5928745,
            41.7870964
          ],
          [
            12.5928181,
            41.7870924
          ],
          [
            12.5927913,
            41.7871404
          ],
          [
            12.5928128,
            41.7872104
          ],
          [
            12.5928476,
            41.7872624
          ],
          [
            12.5929147,
            41.7872884
          ],
          [
            12.5930005,
            41.7872964
          ]
        ]
      },
      "id": "osm-location-of-tombe-di-monte-di-terra",
      "type": "Feature",
      "properties": {
        "description": "Representative location based on OpenStreetMap",
        "location_precision": "precise",
        "title": "OSM location of Tombe di Monte di Terra",
        "link": "http://pleiades.stoa.org/places/212589831/osm-location-of-tombe-di-monte-di-terra"
      }
    }
  ]
}