{
  "type": "FeatureCollection",
  "title": "Deultum",
  "id": "216788",
  "bbox": [
    27.2796811,
    42.3868382,
    27.2829402,
    42.3895348
  ],
  "description": "An ancient settlement, modern Debelt in Bulgaria.",
  "connectsWith": [
    "220489"
  ],
  "names": [
    "Deultum",
    "Develton",
    "Dibaltum",
    "Debelt",
    "Deoueltos kolonia"
  ],
  "features": [
    {
      "type": "Feature",
      "geometry": {
        "type": "Point",
        "coordinates": [
          27.2810469341,
          42.3877600152
        ]
      },
      "properties": {
        "description": "representative point"
      }
    },
    {
      "geometry": {
        "type": "LineString",
        "coordinates": [
          [
            27.2800652,
            42.3880488
          ],
          [
            27.2801169,
            42.389133
          ],
          [
            27.2801291,
            42.3895275
          ],
          [
            27.2807719,
            42.3895348
          ],
          [
            27.2807799,
            42.3892934
          ],
          [
            27.2811968,
            42.3892989
          ],
          [
            27.2817044,
            42.3886302
          ],
          [
            27.281663,
            42.3879045
          ],
          [
            27.2808215,
            42.3879389
          ],
          [
            27.2808573,
            42.3876684
          ],
          [
            27.2807502,
            42.3872908
          ],
          [
            27.2809081,
            42.3872822
          ],
          [
            27.2809599,
            42.3870264
          ],
          [
            27.2812875,
            42.3870636
          ],
          [
            27.2814416,
            42.3870334
          ],
          [
            27.2818872,
            42.387011
          ],
          [
            27.282669,
            42.3870816
          ],
          [
            27.282882,
            42.3870524
          ],
          [
            27.2829402,
            42.3869904
          ],
          [
            27.2822701,
            42.3868996
          ],
          [
            27.2816606,
            42.3868631
          ],
          [
            27.2808557,
            42.3868382
          ],
          [
            27.2796811,
            42.3868878
          ],
          [
            27.2799815,
            42.3872441
          ],
          [
            27.2803902,
            42.3872902
          ],
          [
            27.2804597,
            42.3876081
          ],
          [
            27.280335,
            42.3879056
          ],
          [
            27.2800652,
            42.3880488
          ]
        ]
      },
      "id": "osm-location-of-the-roman-city-of-deultum",
      "type": "Feature",
      "properties": {
        "description": "Representative location based on OpenStreetMap",
        "location_precision": "precise",
        "title": "OSM location of The Roman City of Deultum",
        "link": "http://pleiades.stoa.org/places/216788/osm-location-of-the-roman-city-of-deultum"
      }
    }
  ]
}