{
  "type": "FeatureCollection",
  "title": "Naulochos/Templum Iovis?",
  "id": "216893",
  "bbox": [
    27.883333,
    42.816667,
    27.883333,
    42.816667
  ],
  "description": "A seaside settlement of ancient Thrace that was a colony of Mesembria. Some Romans seem to have referred to the site also as Templum Iovis.",
  "connectsWith": [
    "220489",
    "1224",
    "216882"
  ],
  "names": [
    "Naulochos",
    "Templum Iovis",
    "Tetranaulochus",
    "Templo Iovis"
  ],
  "features": [
    {
      "type": "Feature",
      "geometry": {
        "type": "Point",
        "coordinates": [
          27.883333,
          42.816667
        ]
      },
      "properties": {
        "description": "representative point"
      }
    },
    {
      "geometry": {
        "type": "Point",
        "coordinates": [
          27.883333,
          42.816667
        ]
      },
      "id": "location-of-naulochos-templum-iovis",
      "type": "Feature",
      "properties": {
        "description": "coordinates after Wikipedia; verified in Google Earth 2013.",
        "location_precision": "precise",
        "title": "location of Naulochos/Templum Iovis?",
        "link": "http://pleiades.stoa.org/places/216893/location-of-naulochos-templum-iovis"
      }
    }
  ]
}