{
  "type": "FeatureCollection",
  "title": "Karpoudaimon",
  "id": "222078",
  "description": "Now unlocated, Ptolemy indicates that Karpoudaimon was to be found between Orcelis and Bizye.",
  "names": [
    "Karpoudaimon"
  ],
  "features": [
    {
      "type": "Feature",
      "geometry": null,
      "properties": {
        "description": "representative point"
      }
    },
    {
      "geometry": null,
      "id": "undetermined",
      "type": "Feature",
      "properties": {
        "description": null,
        "location_precision": "unlocated",
        "title": "Undetermined location",
        "link": "http://pleiades.stoa.org/places/222078/undetermined"
      }
    }
  ]
}