{
  "type": "FeatureCollection",
  "title": "Ostaphos",
  "id": "222131",
  "bbox": [
    20.0,
    40.0,
    25.0,
    45.0
  ],
  "description": "An ancient place, cited: BAtlas 22 unlocated Ostaphos",
  "connectsWith": [
    "981552"
  ],
  "names": [
    "Ostaphos"
  ],
  "features": [
    {
      "type": "Feature",
      "geometry": {
        "type": "Point",
        "coordinates": [
          22.5,
          42.5
        ]
      },
      "properties": {
        "description": "representative point"
      }
    },
    {
      "geometry": null,
      "id": "undetermined",
      "type": "Feature",
      "properties": {
        "description": null,
        "location_precision": "unlocated",
        "title": "Undetermined location",
        "link": "http://pleiades.stoa.org/places/222131/undetermined"
      }
    }
  ]
}