{
  "type": "FeatureCollection",
  "title": "Casa degli Archi",
  "id": "22263645",
  "bbox": [
    14.491294,
    40.750077,
    14.491294,
    40.750077
  ],
  "description": "Also known as the House of the Arches, excavated in Pompeii in 1954",
  "names": [
    "Casa degli Archi",
    "House of the Arches"
  ],
  "features": [
    {
      "type": "Feature",
      "geometry": {
        "type": "Point",
        "coordinates": [
          14.491294,
          40.750077
        ]
      },
      "properties": {
        "description": "representative point"
      }
    },
    {
      "geometry": {
        "type": "Point",
        "coordinates": [
          14.491294,
          40.750077
        ]
      },
      "id": "wikidata-location",
      "type": "Feature",
      "properties": {
        "description": "Representative location derived from wikidata",
        "location_precision": "precise",
        "title": "Wikidata Location",
        "link": "http://pleiades.stoa.org/places/22263645/wikidata-location"
      }
    }
  ]
}