{
  "type": "FeatureCollection",
  "title": "Ostudizum",
  "id": "22611669",
  "bbox": [
    26.8205643,
    41.5493038,
    26.8205643,
    41.5493038
  ],
  "description": "City in Thrace located on the road between Hadrianopolis and Byzantium, attested in the Antonine Itinerary.",
  "names": [
    "Ostudizo"
  ],
  "features": [
    {
      "type": "Feature",
      "geometry": {
        "type": "Point",
        "coordinates": [
          26.8205643,
          41.5493038
        ]
      },
      "properties": {
        "description": "representative point"
      }
    },
    {
      "geometry": {
        "type": "Point",
        "coordinates": [
          26.8205643,
          41.5493038
        ]
      },
      "id": "osm-location-of-havsa",
      "type": "Feature",
      "properties": {
        "description": "Location based on OpenStreetMap",
        "location_precision": "precise",
        "title": "OSM Location of Havsa (Χάβσα), Turkey",
        "link": "http://pleiades.stoa.org/places/22611669/osm-location-of-havsa"
      }
    }
  ]
}