{
  "type": "FeatureCollection",
  "title": "Nuraghe Nolza",
  "id": "236026498",
  "bbox": [
    9.0729268,
    39.916911,
    9.0732432,
    39.9171477
  ],
  "description": "The Nuraghe Nolza consists of a central, quadri-lobate tower. The tower still stands to ca. 13 m and the complex covers 2.5 ha.",
  "connectsWith": [
    "472014"
  ],
  "names": [
    "nuraghe Nolza"
  ],
  "features": [
    {
      "type": "Feature",
      "geometry": {
        "type": "Point",
        "coordinates": [
          9.07307152931,
          39.9170218547
        ]
      },
      "properties": {
        "description": "representative point"
      }
    },
    {
      "geometry": {
        "type": "MultiLineString",
        "coordinates": [
          [
            [
              9.0730207,
              39.9170778
            ],
            [
              9.0730007,
              39.9170547
            ],
            [
              9.0729871,
              39.9170305
            ],
            [
              9.0729702,
              39.9170331
            ],
            [
              9.0729469,
              39.9170297
            ],
            [
              9.0729334,
              39.917022
            ],
            [
              9.0729268,
              39.9170099
            ],
            [
              9.0729295,
              39.9169852
            ],
            [
              9.0729407,
              39.9169729
            ],
            [
              9.0729523,
              39.9169657
            ],
            [
              9.0729778,
              39.9169605
            ],
            [
              9.0730019,
              39.9169657
            ],
            [
              9.0730193,
              39.916977
            ],
            [
              9.0730403,
              39.9169645
            ],
            [
              9.0730663,
              39.9169585
            ],
            [
              9.0730574,
              39.9169488
            ],
            [
              9.0730582,
              39.9169379
            ],
            [
              9.0730667,
              39.9169168
            ],
            [
              9.0730775,
              39.9169137
            ],
            [
              9.07309,
              39.916911
            ],
            [
              9.0731165,
              39.9169118
            ],
            [
              9.073136,
              39.9169214
            ],
            [
              9.0731441,
              39.9169306
            ],
            [
              9.0731441,
              39.9169451
            ],
            [
              9.0731377,
              39.9169537
            ],
            [
              9.0731266,
              39.9169615
            ],
            [
              9.0731226,
              39.9169718
            ],
            [
              9.0731709,
              39.9170017
            ],
            [
              9.0732084,
              39.9170052
            ],
            [
              9.0732339,
              39.9170212
            ],
            [
              9.0732432,
              39.9170356
            ],
            [
              9.0732406,
              39.9170541
            ],
            [
              9.0732271,
              39.9170665
            ],
            [
              9.0732116,
              39.9170719
            ],
            [
              9.0732004,
              39.9170716
            ],
            [
              9.0731888,
              39.9170685
            ],
            [
              9.0731712,
              39.9170649
            ],
            [
              9.0730944,
              39.9170983
            ],
            [
              9.0730609,
              39.9171199
            ],
            [
              9.0730421,
              39.9171405
            ],
            [
              9.073018,
              39.9171477
            ],
            [
              9.0729885,
              39.9171415
            ],
            [
              9.0729737,
              39.917123
            ],
            [
              9.072967,
              39.9171045
            ],
            [
              9.0729791,
              39.9170839
            ],
            [
              9.0729925,
              39.9170819
            ],
            [
              9.0730207,
              39.9170778
            ]
          ],
          [
            [
              9.0729582,
              39.9170059
            ],
            [
              9.0729594,
              39.9170016
            ],
            [
              9.0729626,
              39.916998
            ],
            [
              9.0729674,
              39.9169955
            ],
            [
              9.0729731,
              39.9169947
            ],
            [
              9.0729787,
              39.9169956
            ],
            [
              9.0729835,
              39.9169981
            ],
            [
              9.0729866,
              39.9170018
            ],
            [
              9.0729877,
              39.9170062
            ],
            [
              9.0729865,
              39.9170105
            ],
            [
              9.0729832,
              39.9170141
            ],
            [
              9.0729784,
              39.9170166
            ],
            [
              9.0729728,
              39.9170174
            ],
            [
              9.0729671,
              39.9170165
            ],
            [
              9.0729624,
              39.917014
            ],
            [
              9.0729592,
              39.9170103
            ],
            [
              9.0729582,
              39.9170059
            ]
          ],
          [
            [
              9.0731144,
              39.9169447
            ],
            [
              9.0731137,
              39.9169478
            ],
            [
              9.0731116,
              39.9169504
            ],
            [
              9.0731083,
              39.9169522
            ],
            [
              9.0731043,
              39.916953
            ],
            [
              9.0731003,
              39.9169524
            ],
            [
              9.0730969,
              39.9169508
            ],
            [
              9.0730945,
              39.9169483
            ],
            [
              9.0730936,
              39.9169452
            ],
            [
              9.0730943,
              39.9169422
            ],
            [
              9.0730964,
              39.9169395
            ],
            [
              9.0730997,
              39.9169377
            ],
            [
              9.0731037,
              39.916937
            ],
            [
              9.0731077,
              39.9169375
            ],
            [
              9.0731111,
              39.9169392
            ],
            [
              9.0731135,
              39.9169417
            ],
            [
              9.0731144,
              39.9169447
            ]
          ],
          [
            [
              9.0732049,
              39.9170372
            ],
            [
              9.0732047,
              39.9170397
            ],
            [
              9.0732033,
              39.9170421
            ],
            [
              9.0732007,
              39.9170438
            ],
            [
              9.0731976,
              39.9170446
            ],
            [
              9.0731942,
              39.9170445
            ],
            [
              9.0731912,
              39.9170433
            ],
            [
              9.0731889,
              39.9170414
            ],
            [
              9.0731878,
              39.917039
            ],
            [
              9.073188,
              39.9170364
            ],
            [
              9.0731895,
              39.9170341
            ],
            [
              9.073192,
              39.9170324
            ],
            [
              9.0731952,
              39.9170315
            ],
            [
              9.0731986,
              39.9170317
            ],
            [
              9.0732016,
              39.9170328
            ],
            [
              9.0732038,
              39.9170347
            ],
            [
              9.0732049,
              39.9170372
            ]
          ]
        ]
      },
      "id": "osm-location-nuraghe-nolza",
      "type": "Feature",
      "properties": {
        "description": "Representative location based on OpenStreetMap",
        "location_precision": "precise",
        "title": "OSM location: Nuraghe Nolza",
        "link": "http://pleiades.stoa.org/places/236026498/osm-location-nuraghe-nolza"
      }
    }
  ]
}