{
  "type": "FeatureCollection",
  "title": "Bracara Augusta",
  "id": "236377",
  "bbox": [
    -8.4306795,
    41.5460255,
    -7.48438481819,
    43.2534593891
  ],
  "description": "With settlement from the Neolithic onwards, Bracara Augusta (modern Braga in Portugal) was established as a civitas in 20 BCE. In the third century CE, Diocletian advanced the settlement to the capital of the administrative area known as Conventus Bracarensis, forming part of the Roman province of Gallaecia.",
  "connectsWith": [
    "236400",
    "240092",
    "240094",
    "240093",
    "240095",
    "240096",
    "927078047"
  ],
  "names": [
    "Bracara Augusta",
    "Bracari",
    "Bracarum oppidum Augusta",
    "Brakaroi",
    "Braga",
    "Bracaraugusta",
    "Brakaraugousta",
    "Brakarioi"
  ],
  "features": [
    {
      "type": "Feature",
      "geometry": {
        "type": "Point",
        "coordinates": [
          -8.42722773619,
          41.5476845899
        ]
      },
      "properties": {
        "description": "representative point"
      }
    }
  ]
}