{
  "type": "FeatureCollection",
  "title": "Iuliobriga",
  "id": "236493",
  "bbox": [
    -4.1162153,
    42.9855795,
    -4.1101095,
    42.9875979
  ],
  "description": "Iuliobriga was an ancient Roman city founded in the territory of the Cantabri during the Cantabrian Wars (29–19 BCE). The site of the settlement is associated with archaeological remains found at Retortillo (Cantabria) and the Villafría district, in the municipality of Campoo de Enmedio.",
  "names": [
    "Retortillo",
    "Iuliobriga"
  ],
  "features": [
    {
      "type": "Feature",
      "geometry": {
        "type": "Point",
        "coordinates": [
          -4.11394170539,
          42.9864073713
        ]
      },
      "properties": {
        "description": "representative point"
      }
    },
    {
      "geometry": {
        "type": "LineString",
        "coordinates": [
          [
            -4.1107366,
            42.9875979
          ],
          [
            -4.1115354,
            42.9870717
          ],
          [
            -4.1117036,
            42.9869578
          ],
          [
            -4.1118731,
            42.986843
          ],
          [
            -4.1116396,
            42.9866586
          ],
          [
            -4.1116032,
            42.9866221
          ],
          [
            -4.1113866,
            42.9867138
          ],
          [
            -4.1111243,
            42.9868515
          ],
          [
            -4.1109191,
            42.9869724
          ],
          [
            -4.1107195,
            42.9871267
          ],
          [
            -4.1104459,
            42.9872268
          ],
          [
            -4.1102007,
            42.9873227
          ],
          [
            -4.1101095,
            42.9873727
          ],
          [
            -4.1103034,
            42.9874019
          ],
          [
            -4.1104801,
            42.9874228
          ],
          [
            -4.1106112,
            42.9875145
          ],
          [
            -4.1107366,
            42.9875979
          ]
        ]
      },
      "id": "osm-location-of-iuliobriga",
      "type": "Feature",
      "properties": {
        "description": "Representative location based on OpenStreetMap",
        "location_precision": "precise",
        "title": "OSM location of Iuliobriga",
        "link": "http://pleiades.stoa.org/places/236493/osm-location-of-iuliobriga"
      }
    },
    {
      "geometry": {
        "type": "LineString",
        "coordinates": [
          [
            -4.1159473,
            42.9860591
          ],
          [
            -4.1160785,
            42.9858798
          ],
          [
            -4.1162153,
            42.985788
          ],
          [
            -4.1159473,
            42.9855795
          ],
          [
            -4.1153886,
            42.9856295
          ],
          [
            -4.11479,
            42.9856796
          ],
          [
            -4.1145569,
            42.9856953
          ],
          [
            -4.1148384,
            42.9858843
          ],
          [
            -4.1150255,
            42.9859706
          ],
          [
            -4.115196,
            42.9860266
          ],
          [
            -4.1156059,
            42.9860603
          ],
          [
            -4.1159429,
            42.9860771
          ],
          [
            -4.1159473,
            42.9860591
          ]
        ]
      },
      "id": "osm-location-of-iuliobriga-1",
      "type": "Feature",
      "properties": {
        "description": "Location based on OpenStreetMap",
        "location_precision": "precise",
        "title": "OSM location of Iuliobriga",
        "link": "http://pleiades.stoa.org/places/236493/osm-location-of-iuliobriga-1"
      }
    },
    {
      "geometry": {
        "type": "LineString",
        "coordinates": [
          [
            -4.1156179,
            42.9861208
          ],
          [
            -4.1157004,
            42.986386
          ],
          [
            -4.1158133,
            42.986385
          ],
          [
            -4.1158366,
            42.9864697
          ],
          [
            -4.1156832,
            42.9864946
          ],
          [
            -4.1156617,
            42.986427
          ],
          [
            -4.1152233,
            42.9864928
          ],
          [
            -4.1150124,
            42.986155
          ],
          [
            -4.1149611,
            42.9860549
          ],
          [
            -4.1149908,
            42.9860291
          ],
          [
            -4.115208,
            42.9860871
          ],
          [
            -4.1156179,
            42.9861208
          ]
        ]
      },
      "id": "osm-location-of-iuliobriga-2",
      "type": "Feature",
      "properties": {
        "description": "Location based on OpenStreetMap",
        "location_precision": "precise",
        "title": "OSM Location of Iuliobriga",
        "link": "http://pleiades.stoa.org/places/236493/osm-location-of-iuliobriga-2"
      }
    }
  ]
}