{
  "type": "FeatureCollection",
  "title": "Praesidium",
  "id": "236617",
  "bbox": [
    -7.4019023,
    42.3522813,
    -7.4019023,
    42.3522813
  ],
  "description": "A station attested in the Antonine Itinerary, located between Salientes and Nemetobriga.",
  "names": [
    "Praesidium"
  ],
  "features": [
    {
      "type": "Feature",
      "geometry": {
        "type": "Point",
        "coordinates": [
          -7.4019023,
          42.3522813
        ]
      },
      "properties": {
        "description": "representative point"
      }
    },
    {
      "geometry": {
        "type": "Point",
        "coordinates": [
          -7.4019023,
          42.3522813
        ]
      },
      "id": "o-burgo",
      "type": "Feature",
      "properties": {
        "description": "Location based on OpenStreetMap",
        "location_precision": "precise",
        "title": "OSM Location of modern O Burgo",
        "link": "http://pleiades.stoa.org/places/236617/o-burgo"
      }
    }
  ]
}