{
  "type": "FeatureCollection",
  "title": "Road Route: Bracara Augusta → Burbida → Brevis → Lucus Augusti → Asturica Augusta",
  "id": "240095",
  "bbox": [
    -8.531584,
    41.55001,
    -6.063491,
    43.012084
  ],
  "description": "Bracara Augusta → Burbida → Brevis → Lucus Augusti → Asturica Augusta",
  "connectsWith": [
    "236525",
    "236352",
    "236379",
    "236388"
  ],
  "features": [
    {
      "type": "Feature",
      "geometry": {
        "type": "Point",
        "coordinates": [
          -8.424973,
          41.550875
        ]
      },
      "properties": {
        "description": "representative point"
      }
    },
    {
      "geometry": {
        "type": "Polygon",
        "coordinates": [
          [
            [
              -11.0,
              40.0
            ],
            [
              -11.0,
              44.0
            ],
            [
              -3.0,
              44.0
            ],
            [
              -3.0,
              40.0
            ],
            [
              -11.0,
              40.0
            ]
          ]
        ]
      },
      "id": "batlas-location",
      "type": "Feature",
      "properties": {
        "description": "Roughly located within a bounding box",
        "location_precision": "rough",
        "title": "Barrington Atlas location",
        "link": "http://pleiades.stoa.org/places/240095/batlas-location"
      }
    }
  ]
}