{
  "type": "FeatureCollection",
  "title": "Road Route: Bracara Augusta → Nemetobriga → Asturica Augusta (Via Nova) ",
  "id": "240094",
  "bbox": [
    -8.427013,
    41.55001,
    -6.063491,
    42.458902
  ],
  "description": "Bracara Augusta → Nemetobriga → Asturica Augusta (Via Nova)",
  "connectsWith": [
    "236565",
    "236352"
  ],
  "features": [
    {
      "type": "Feature",
      "geometry": {
        "type": "Point",
        "coordinates": [
          -8.424973,
          41.550875
        ]
      },
      "properties": {
        "description": "representative point"
      }
    },
    {
      "geometry": {
        "type": "Polygon",
        "coordinates": [
          [
            [
              -11.0,
              40.0
            ],
            [
              -11.0,
              44.0
            ],
            [
              -3.0,
              44.0
            ],
            [
              -3.0,
              40.0
            ],
            [
              -11.0,
              40.0
            ]
          ]
        ]
      },
      "id": "batlas-location",
      "type": "Feature",
      "properties": {
        "description": "Roughly located within a bounding box",
        "location_precision": "rough",
        "title": "Barrington Atlas location",
        "link": "http://pleiades.stoa.org/places/240094/batlas-location"
      }
    }
  ]
}