{
  "type": "FeatureCollection",
  "title": "Road Route: Conimbriga → Bracara Augusta",
  "id": "240092",
  "bbox": [
    -8.4995704,
    40.0970694,
    -8.422933,
    41.55174
  ],
  "description": "Conimbriga → Bracara Augusta",
  "features": [
    {
      "type": "Feature",
      "geometry": {
        "type": "Point",
        "coordinates": [
          -8.45944541039,
          40.8248689639
        ]
      },
      "properties": {
        "description": "representative point"
      }
    },
    {
      "geometry": {
        "type": "Polygon",
        "coordinates": [
          [
            [
              -11.0,
              40.0
            ],
            [
              -11.0,
              44.0
            ],
            [
              -3.0,
              44.0
            ],
            [
              -3.0,
              40.0
            ],
            [
              -11.0,
              40.0
            ]
          ]
        ]
      },
      "id": "batlas-location",
      "type": "Feature",
      "properties": {
        "description": "Roughly located within a bounding box",
        "location_precision": "rough",
        "title": "Barrington Atlas location",
        "link": "http://pleiades.stoa.org/places/240092/batlas-location"
      }
    }
  ]
}