{
  "type": "FeatureCollection",
  "title": "Castellum Agrippa",
  "id": "240887",
  "bbox": [
    -8.427013,
    41.55001,
    -8.422933,
    41.55174
  ],
  "description": "An ancient place, cited: BAtlas 24 unlocated Castellum Agrippa",
  "connectsWith": [
    "236377"
  ],
  "names": [
    "Castellum Agrippa"
  ],
  "features": [
    {
      "type": "Feature",
      "geometry": {
        "type": "Point",
        "coordinates": [
          -8.424973,
          41.550875
        ]
      },
      "properties": {
        "description": "representative point"
      }
    }
  ]
}