{
  "type": "FeatureCollection",
  "title": "Casa dell'Imperatrice di Russia",
  "id": "242365256",
  "bbox": [
    14.485267,
    40.751598,
    14.485267,
    40.751598
  ],
  "description": "Dwelling in Pompeii discovered in 1846, likely to have been the house of Inventus.",
  "names": [
    "Casa dell'Imperatrice di Russia",
    "Casa della Imperatrice di Russia."
  ],
  "features": [
    {
      "type": "Feature",
      "geometry": {
        "type": "Point",
        "coordinates": [
          14.485267,
          40.751598
        ]
      },
      "properties": {
        "description": "representative point"
      }
    },
    {
      "geometry": {
        "type": "Point",
        "coordinates": [
          14.485267,
          40.751598
        ]
      },
      "id": "wikidata-location",
      "type": "Feature",
      "properties": {
        "description": "Representative location derived from Wikidata",
        "location_precision": "precise",
        "title": "Wikidata Location",
        "link": "http://pleiades.stoa.org/places/242365256/wikidata-location"
      }
    }
  ]
}