{
  "type": "FeatureCollection",
  "title": "Temple O (Selinus)",
  "id": "253721601",
  "bbox": [
    12.8250566,
    37.5822162,
    12.8255112,
    37.5823964
  ],
  "description": "Temple O at Selinus is a Doric-order temple dating to the early fifth century BCE. It is similar in design to Temple A. The temple measures 16.2 x 40.2 meters with a 6 x 14 columnar arrangement (6.23-meter order height).",
  "connectsWith": [
    "462489"
  ],
  "features": [
    {
      "type": "Feature",
      "geometry": {
        "type": "Point",
        "coordinates": [
          12.8252839215,
          37.5823062942
        ]
      },
      "properties": {
        "description": "representative point"
      }
    },
    {
      "geometry": {
        "type": "LineString",
        "coordinates": [
          [
            12.8250768,
            37.5823964
          ],
          [
            12.8255112,
            37.5823576
          ],
          [
            12.8254911,
            37.5822162
          ],
          [
            12.8250566,
            37.582255
          ],
          [
            12.8250761,
            37.5823915
          ],
          [
            12.8250768,
            37.5823964
          ]
        ]
      },
      "id": "osm-location-of-temple-o-selinus",
      "type": "Feature",
      "properties": {
        "description": "Representative location based on OpenStreetMap",
        "location_precision": "precise",
        "title": "OSM location of Temple O (Selinus)",
        "link": "http://pleiades.stoa.org/places/253721601/osm-location-of-temple-o-selinus"
      }
    }
  ]
}