{
  "type": "FeatureCollection",
  "title": "Puente la Molina",
  "id": "264981107",
  "bbox": [
    -4.8508617,
    36.8825689,
    -4.8508617,
    36.8825689
  ],
  "description": "A Roman bridge across the río Turón near Ardales, Spain.",
  "features": [
    {
      "type": "Feature",
      "geometry": {
        "type": "Point",
        "coordinates": [
          -4.8508617,
          36.8825689
        ]
      },
      "properties": {
        "description": "representative point"
      }
    },
    {
      "geometry": {
        "type": "Point",
        "coordinates": [
          -4.8508617,
          36.8825689
        ]
      },
      "id": "osm-location-of-puente-romano-de-la-molina",
      "type": "Feature",
      "properties": {
        "description": "Representative location based on OpenStreetMap",
        "location_precision": "precise",
        "title": "OSM location of Puente Romano de la Molina",
        "link": "http://pleiades.stoa.org/places/264981107/osm-location-of-puente-romano-de-la-molina"
      }
    }
  ]
}