{
  "type": "FeatureCollection",
  "title": "Porta Rosa",
  "id": "271500627",
  "bbox": [
    15.158561,
    40.162639,
    15.1587915,
    40.1627601
  ],
  "description": "An arched gateway built using the Lesbian polygonal masonry technique at Velia.",
  "connectsWith": [
    "452488"
  ],
  "names": [
    "Porta Rosa"
  ],
  "features": [
    {
      "type": "Feature",
      "geometry": {
        "type": "Point",
        "coordinates": [
          15.1586444507,
          40.1626702998
        ]
      },
      "properties": {
        "description": "representative point"
      }
    },
    {
      "geometry": {
        "type": "LineString",
        "coordinates": [
          [
            15.1586643,
            40.1626683
          ],
          [
            15.1586892,
            40.1626568
          ],
          [
            15.1587189,
            40.1626431
          ],
          [
            15.1587531,
            40.1626863
          ],
          [
            15.1587915,
            40.1627349
          ],
          [
            15.1587625,
            40.1627483
          ],
          [
            15.1587369,
            40.1627601
          ],
          [
            15.158702,
            40.162716
          ],
          [
            15.1586643,
            40.1626683
          ]
        ]
      },
      "id": "osm-location-of-porta-rosa",
      "type": "Feature",
      "properties": {
        "description": "Representative location based on OpenStreetMap.",
        "location_precision": "precise",
        "title": "OSM location of Porta Rosa",
        "link": "http://pleiades.stoa.org/places/271500627/osm-location-of-porta-rosa"
      }
    },
    {
      "geometry": {
        "type": "Point",
        "coordinates": [
          15.158561,
          40.162639
        ]
      },
      "id": "imagery-location-porta-rosa",
      "type": "Feature",
      "properties": {
        "description": "Arched gateway in Lesbian polygonal masonry at Velia",
        "location_precision": "precise",
        "title": "Imagery Location of the Porta Rosa",
        "link": "http://pleiades.stoa.org/places/271500627/imagery-location-porta-rosa"
      }
    }
  ]
}