{
  "type": "FeatureCollection",
  "title": "Untitled",
  "id": "277852",
  "bbox": [
    -5.520285,
    33.998055,
    -5.520285,
    33.998055
  ],
  "description": "This place was originally included in the Barrington Atlas as an unnamed feature. The map-by-map directory indicates that it be identified as \"settlement and fort north of Bled Fachar\".",
  "names": [
    "Bled Fachar⁠"
  ],
  "features": [
    {
      "type": "Feature",
      "geometry": {
        "type": "Point",
        "coordinates": [
          -5.520285,
          33.998055
        ]
      },
      "properties": {
        "description": "representative point"
      }
    },
    {
      "geometry": {
        "type": "Point",
        "coordinates": [
          -5.520285,
          33.998055
        ]
      },
      "id": "darmc-location-16186",
      "type": "Feature",
      "properties": {
        "description": "500K scale point location",
        "location_precision": "precise",
        "title": "DARMC location 16186",
        "link": "http://pleiades.stoa.org/places/277852/darmc-location-16186"
      }
    }
  ]
}