{
  "type": "FeatureCollection",
  "title": "Cobucla",
  "id": "278605",
  "bbox": [
    -4.666514,
    35.205755,
    -4.666514,
    35.205755
  ],
  "description": "An ancient place listed in the Antonine Itinerary. BAtlas elected not to place it on a map, but in the directory tentatively suggested a potential identification with modern el Jabha.",
  "names": [
    "Cobucla",
    "el Jabha"
  ],
  "features": [
    {
      "type": "Feature",
      "geometry": {
        "type": "Point",
        "coordinates": [
          -4.666514,
          35.205755
        ]
      },
      "properties": {
        "description": "representative point"
      }
    },
    {
      "geometry": {
        "type": "Point",
        "coordinates": [
          -4.666514,
          35.205755
        ]
      },
      "id": "osm-modern-location-of-el-jebha",
      "type": "Feature",
      "properties": {
        "description": "Location based on OpenStreetMap",
        "location_precision": "precise",
        "title": "OSM Modern Location of El Jebha",
        "link": "http://pleiades.stoa.org/places/278605/osm-modern-location-of-el-jebha"
      }
    }
  ]
}