{
  "type": "FeatureCollection",
  "title": "Unnamed fort",
  "id": "286902",
  "bbox": [
    -2.0,
    34.0,
    -1.0,
    35.0
  ],
  "description": "An unnamed fort is included in map 29 of the Barrington Atlas that is located southwest of Ghar Roubane.",
  "names": [
    "Ghar Roubane⁠"
  ],
  "features": [
    {
      "type": "Feature",
      "geometry": {
        "type": "Point",
        "coordinates": [
          -1.5,
          34.5
        ]
      },
      "properties": {
        "description": "representative point"
      }
    },
    {
      "geometry": {
        "type": "Polygon",
        "coordinates": [
          [
            [
              -2.0,
              34.0
            ],
            [
              -2.0,
              35.0
            ],
            [
              -1.0,
              35.0
            ],
            [
              -1.0,
              34.0
            ],
            [
              -2.0,
              34.0
            ]
          ]
        ]
      },
      "id": "batlas-location",
      "type": "Feature",
      "properties": {
        "description": null,
        "location_precision": "rough",
        "title": "Barrington Atlas location",
        "link": "http://pleiades.stoa.org/places/286902/batlas-location"
      }
    }
  ]
}