{
  "type": "FeatureCollection",
  "title": "Parietina",
  "id": "289945",
  "bbox": [
    -4.2890343,
    35.1684513,
    -4.2890343,
    35.1684513
  ],
  "description": "An ancient place, cited: BAtlas 29 unlocated Parietina",
  "names": [
    "Parietina"
  ],
  "features": [
    {
      "type": "Feature",
      "geometry": {
        "type": "Point",
        "coordinates": [
          -4.2890343,
          35.1684513
        ]
      },
      "properties": {
        "description": "representative point"
      }
    },
    {
      "geometry": {
        "type": "Point",
        "coordinates": [
          -4.2890343,
          35.1684513
        ]
      },
      "id": "osm-modern-location-of-badis",
      "type": "Feature",
      "properties": {
        "description": "Location based on OpenStreetMap",
        "location_precision": "precise",
        "title": "OSM Modern location of Badis",
        "link": "http://pleiades.stoa.org/places/289945/osm-modern-location-of-badis"
      }
    }
  ]
}