{
  "type": "FeatureCollection",
  "title": "Greek Theater",
  "id": "293222275",
  "bbox": [
    44.429825,
    32.542579,
    44.429825,
    32.542579
  ],
  "description": "Remains of a mud-brick theater with a building inscription in Greek were excavated at Babylon. The structure was substantially rebuilt in modern times.",
  "connectsWith": [
    "893951"
  ],
  "features": [
    {
      "type": "Feature",
      "geometry": {
        "type": "Point",
        "coordinates": [
          44.429825,
          32.542579
        ]
      },
      "properties": {
        "description": "representative point"
      }
    },
    {
      "geometry": {
        "type": "Point",
        "coordinates": [
          44.429825,
          32.542579
        ]
      },
      "id": "imagery-location-orchestra",
      "type": "Feature",
      "properties": {
        "description": null,
        "location_precision": "precise",
        "title": "Imagery Location of the Reconstructed Orchestra",
        "link": "http://pleiades.stoa.org/places/293222275/imagery-location-orchestra"
      }
    }
  ]
}