{
  "type": "FeatureCollection",
  "title": "Ain el Hammam",
  "id": "295211",
  "bbox": [
    0.441736987059,
    36.1674411161,
    0.441736987059,
    36.1674411161
  ],
  "description": "AAA recorded a prehistoric site in a ravine and a separate Roman site on a height, both south of this spring. BAtlas placed a settlement symbol for the Roman site roughly coincident with what is now the modern town of Sidi Lakhdar in Algeria's Mostaganem province.",
  "names": [
    "Sidi Lakhdar"
  ],
  "features": [
    {
      "type": "Feature",
      "geometry": {
        "type": "Point",
        "coordinates": [
          0.441736987059,
          36.1674411161
        ]
      },
      "properties": {
        "description": "representative point"
      }
    },
    {
      "geometry": {
        "type": "Point",
        "coordinates": [
          0.44173698705939,
          36.1674411161271
        ]
      },
      "id": "batlas-position",
      "type": "Feature",
      "properties": {
        "description": "Location digitized from Barrington Atlas map 30 inset. Dates after BAtlDir",
        "location_precision": "precise",
        "title": "BAtlas Position",
        "link": "http://pleiades.stoa.org/places/295211/batlas-position"
      }
    }
  ]
}