{
  "type": "FeatureCollection",
  "title": "Quiza Cenitana",
  "id": "295327",
  "bbox": [
    0.216778,
    36.025896,
    0.26658,
    36.033964
  ],
  "description": "Quiza Cenitana was a place located on the coast of Mauretania Caesariensis. Various ancient authors refer to it by different terms - colonia (Ptolemy), municipium (Antonine Itinerary), and oppidum (Pliny the Elder).",
  "names": [
    "Quiza municipium",
    "Quiza castellum",
    "Quiza Cenitana peregrinorum oppidum",
    "Kouiza kolonia",
    "Bouiza"
  ],
  "features": [
    {
      "type": "Feature",
      "geometry": {
        "type": "Point",
        "coordinates": [
          0.241679,
          36.02993
        ]
      },
      "properties": {
        "description": "representative point"
      }
    },
    {
      "geometry": {
        "type": "Point",
        "coordinates": [
          0.216778,
          36.033964
        ]
      },
      "id": "darmc-location-15617",
      "type": "Feature",
      "properties": {
        "description": "1:500,000 scale representative point location digitized from the Barrington Atlas of the Greek and Roman World by the Digital Atlas of Roman and Medieval Civilizations project at Harvard University.",
        "location_precision": "precise",
        "title": "DARMC location 15617",
        "link": "http://pleiades.stoa.org/places/295327/darmc-location-15617"
      }
    },
    {
      "geometry": {
        "type": "Point",
        "coordinates": [
          0.26658,
          36.025896
        ]
      },
      "id": "dare-location",
      "type": "Feature",
      "properties": {
        "description": "Representative point location, village precision",
        "location_precision": "precise",
        "title": "DARE Location",
        "link": "http://pleiades.stoa.org/places/295327/dare-location"
      }
    }
  ]
}