{
  "type": "FeatureCollection",
  "title": "Zucchabar",
  "id": "295374",
  "bbox": [
    2.22619,
    36.304782,
    2.22619,
    36.304782
  ],
  "description": "Zucchabar was an ancient city of Mauretania Caesariensis with Punic origins. The modern Algerian community of Miliana lies atop and around the largely unexcavated ancient site. Epigraphic evidence indicates that the Roman emperor Augustus established a veteran colony there.",
  "connectsWith": [
    "285482"
  ],
  "names": [
    "Zucchabar",
    "Zouchábbari",
    "municipium Sugabarritanum",
    "colonia Iulia Augusta Z(uccabar)",
    "Succhabar"
  ],
  "features": [
    {
      "type": "Feature",
      "geometry": {
        "type": "Point",
        "coordinates": [
          2.22619,
          36.304782
        ]
      },
      "properties": {
        "description": "representative point"
      }
    },
    {
      "geometry": {
        "type": "Point",
        "coordinates": [
          2.22619,
          36.304782
        ]
      },
      "id": "dare-location",
      "type": "Feature",
      "properties": {
        "description": "Representative point location, village precision",
        "location_precision": "precise",
        "title": "DARE Location",
        "link": "http://pleiades.stoa.org/places/295374/dare-location"
      }
    }
  ]
}