{
  "type": "FeatureCollection",
  "title": "Kendale Hecala",
  "id": "299713605",
  "bbox": [
    40.4614718,
    38.2567077,
    40.4614718,
    38.2567077
  ],
  "description": "Site in the Upper Tigris inhabited during the early Chalcolithic Period (approximately 5200-4500 BCE).",
  "features": [
    {
      "type": "Feature",
      "geometry": {
        "type": "Point",
        "coordinates": [
          40.4614718,
          38.2567077
        ]
      },
      "properties": {
        "description": "representative point"
      }
    },
    {
      "geometry": {
        "type": "Point",
        "coordinates": [
          40.4614718,
          38.2567077
        ]
      },
      "id": "kendale-hecala",
      "type": "Feature",
      "properties": {
        "description": "Point representing the visible remains of the Kendale Hecala site, derived from an OpenStreetMap Node after Çiftçi 2026.",
        "location_precision": "precise",
        "title": "OSM location of Kendale Hecala",
        "link": "http://pleiades.stoa.org/places/299713605/kendale-hecala"
      }
    }
  ]
}