{
  "type": "FeatureCollection",
  "title": "Sanctuary of Achilles (Laconia)",
  "id": "306258361",
  "bbox": [
    22.42972,
    37.07333,
    22.42972,
    37.07333
  ],
  "description": "Described by Pausanias as being on the road from Sparta to Arcadia.",
  "connectsWith": [
    "570685",
    "552653587"
  ],
  "features": [
    {
      "type": "Feature",
      "geometry": {
        "type": "Point",
        "coordinates": [
          22.42972,
          37.07333
        ]
      },
      "properties": {
        "description": "representative point"
      }
    },
    {
      "geometry": {
        "type": "Point",
        "coordinates": [
          22.42972,
          37.07333
        ]
      },
      "id": "wikidata-location",
      "type": "Feature",
      "properties": {
        "description": "Representative location derived from coordinates in Wikidata",
        "location_precision": "precise",
        "title": "Wikidata Location",
        "link": "http://pleiades.stoa.org/places/306258361/wikidata-location"
      }
    }
  ]
}