{
  "type": "FeatureCollection",
  "title": "Ptoion (Mountain)",
  "id": "307983955",
  "bbox": [
    23.2285,
    38.4686,
    23.2285,
    38.4686
  ],
  "description": "Mountain range in Boeotia, above Akraiphion.",
  "names": [
    "Ptōion",
    "Ptōon"
  ],
  "features": [
    {
      "type": "Feature",
      "geometry": {
        "type": "Point",
        "coordinates": [
          23.2285,
          38.4686
        ]
      },
      "properties": {
        "description": "representative point"
      }
    },
    {
      "geometry": {
        "type": "Point",
        "coordinates": [
          23.2285,
          38.4686
        ]
      },
      "id": "topostext-location",
      "type": "Feature",
      "properties": {
        "description": "Representative location derived from Topostext",
        "location_precision": "precise",
        "title": "Topostext Location",
        "link": "http://pleiades.stoa.org/places/307983955/topostext-location"
      }
    }
  ]
}