{
  "type": "FeatureCollection",
  "title": "Ad Basilicam",
  "id": "311064",
  "bbox": [
    5.439252,
    36.660858,
    5.482233,
    36.672297
  ],
  "description": "An ancient place, cited: BAtlas 31 unlocated Ad Basilicam",
  "connectsWith": [
    "305062"
  ],
  "names": [
    "Ad Basilicam",
    "Ad Basilica"
  ],
  "features": [
    {
      "type": "Feature",
      "geometry": {
        "type": "Point",
        "coordinates": [
          5.4607425,
          36.6665775
        ]
      },
      "properties": {
        "description": "representative point"
      }
    },
    {
      "geometry": null,
      "id": "batlas-location",
      "type": "Feature",
      "properties": {
        "description": null,
        "location_precision": "unlocated",
        "title": "Barrington Atlas location",
        "link": "http://pleiades.stoa.org/places/311064/batlas-location"
      }
    }
  ]
}