{
  "type": "FeatureCollection",
  "title": "Monument to the Amazons",
  "id": "318468222",
  "bbox": [
    23.7226,
    37.9707,
    23.7226,
    37.9707
  ],
  "description": "Unlocated tomb, monument, or memorial to the Amazons in Athens that were repelled by Theseus during the Amazonomachy.",
  "connectsWith": [
    "579885"
  ],
  "names": [
    "Amazoneum"
  ],
  "features": [
    {
      "type": "Feature",
      "geometry": {
        "type": "Point",
        "coordinates": [
          23.7226,
          37.9707
        ]
      },
      "properties": {
        "description": "representative point"
      }
    },
    {
      "geometry": {
        "type": "Point",
        "coordinates": [
          23.7226,
          37.9707
        ]
      },
      "id": "topostext-location",
      "type": "Feature",
      "properties": {
        "description": "Representative point derived from Topostext",
        "location_precision": "precise",
        "title": "Topostext Location",
        "link": "http://pleiades.stoa.org/places/318468222/topostext-location"
      }
    }
  ]
}