{
  "type": "FeatureCollection",
  "title": "Ain el Hammam (Charef)",
  "id": "334484",
  "bbox": [
    2.955284,
    34.66473,
    2.955284,
    34.66473
  ],
  "description": "A Roman-era camp with bath and associated hot springs in modern Algeria's Charef district. The site, now built over by a modern resort hotel complex, was located where the modern road between Charef and Djelfa crosses the Oued el Hadjia. In 2026, OpenStreetMap records the local post office as having the name \"El Hammam\".",
  "names": [
    "Hammam - Charef",
    "Ain el Hammam",
    "el Hammam",
    "Hammam Charef"
  ],
  "features": [
    {
      "type": "Feature",
      "geometry": {
        "type": "Point",
        "coordinates": [
          2.955284,
          34.66473
        ]
      },
      "properties": {
        "description": "representative point"
      }
    },
    {
      "geometry": {
        "type": "Point",
        "coordinates": [
          2.955284,
          34.66473
        ]
      },
      "id": "darmc-location-2372",
      "type": "Feature",
      "properties": {
        "description": "1:500,000 scale representative point location digitized from the Barrington Atlas of the Greek and Roman World by the Digital Atlas of Roman and Medieval Civilizations project at Harvard University.",
        "location_precision": "precise",
        "title": "DARMC location 2372",
        "link": "http://pleiades.stoa.org/places/334484/darmc-location-2372"
      }
    }
  ]
}