{
  "type": "FeatureCollection",
  "title": "Pontos?",
  "id": "344460",
  "bbox": [
    12.725499,
    32.759388,
    12.725499,
    32.759388
  ],
  "description": "An ancient place, cited: BAtlas 35 E2 Pontos?",
  "names": [
    "Pontos"
  ],
  "features": [
    {
      "type": "Feature",
      "geometry": {
        "type": "Point",
        "coordinates": [
          12.725499,
          32.759388
        ]
      },
      "properties": {
        "description": "representative point"
      }
    },
    {
      "geometry": {
        "type": "Point",
        "coordinates": [
          12.725499,
          32.759388
        ]
      },
      "id": "darmc-location-9868",
      "type": "Feature",
      "properties": {
        "description": "1:1 million scale representative point location digitized from the Barrington Atlas of the Greek and Roman World by the Digital Atlas of Roman and Medieval Civilizations project at Harvard University.",
        "location_precision": "precise",
        "title": "DARMC location 9868",
        "link": "http://pleiades.stoa.org/places/344460/darmc-location-9868"
      }
    }
  ]
}