{
  "type": "FeatureCollection",
  "title": "tomb of Cerberus",
  "id": "35786281",
  "bbox": [
    14.1125675,
    40.9147527,
    14.112649,
    40.9148721
  ],
  "description": "A painted tomb located at Giugliano in Campania, the so-called tomb of Cerberus, was discovered in 2023 during utility work. This is a hypogeum tomb built in tuff blocks with an opus incertum facade. A stepped dromos led to the tomb itself.",
  "connectsWith": [
    "432911"
  ],
  "features": [
    {
      "type": "Feature",
      "geometry": {
        "type": "Point",
        "coordinates": [
          14.1126086987,
          40.9148137348
        ]
      },
      "properties": {
        "description": "representative point"
      }
    },
    {
      "geometry": {
        "type": "LineString",
        "coordinates": [
          [
            14.112629,
            40.9148721
          ],
          [
            14.1125675,
            40.9148664
          ],
          [
            14.1125911,
            40.9147527
          ],
          [
            14.112649,
            40.9147619
          ],
          [
            14.112629,
            40.9148721
          ]
        ]
      },
      "id": "osm-location-of-tomb-of-cerberus",
      "type": "Feature",
      "properties": {
        "description": "Representative location based on OpenStreetMap",
        "location_precision": "precise",
        "title": "OSM location of tomb of Cerberus",
        "link": "http://pleiades.stoa.org/places/35786281/osm-location-of-tomb-of-cerberus"
      }
    }
  ]
}