{
  "type": "FeatureCollection",
  "title": "Acheron (mythological river)",
  "id": "36476595",
  "bbox": [
    20.475656,
    39.2348296,
    20.4831346,
    39.236174
  ],
  "description": "Mythological river of woe in the underworld.",
  "connectsWith": [
    "853874840",
    "530769"
  ],
  "names": [
    "Acheronta"
  ],
  "features": [
    {
      "type": "Feature",
      "geometry": {
        "type": "Point",
        "coordinates": [
          20.4798724094,
          39.2356556842
        ]
      },
      "properties": {
        "description": "representative point"
      }
    }
  ]
}