{
  "type": "FeatureCollection",
  "title": "Olginate Roman Bridge",
  "id": "382107875",
  "bbox": [
    9.4152155,
    45.8030256,
    9.4152155,
    45.8030256
  ],
  "description": "Ruins of a late Roman bridge identified in the mid 20th century at a location now roughly coincident with a modern bridge at Olginate over the Fiume Adda (ancient Addua) immediately below the modern dam that retains the Lago di Garlate.",
  "names": [
    "Ponte Romano di Olginate"
  ],
  "features": [
    {
      "type": "Feature",
      "geometry": {
        "type": "Point",
        "coordinates": [
          9.4152155,
          45.8030256
        ]
      },
      "properties": {
        "description": "representative point"
      }
    },
    {
      "geometry": {
        "type": "Point",
        "coordinates": [
          9.4152155,
          45.8030256
        ]
      },
      "id": "osm-location",
      "type": "Feature",
      "properties": {
        "description": "Location based on OpenStreetMap",
        "location_precision": "precise",
        "title": "OSM Location: Ponte Vittorio Emanuele Terzo",
        "link": "http://pleiades.stoa.org/places/382107875/osm-location"
      }
    }
  ]
}