{
  "type": "FeatureCollection",
  "title": "Leucerae",
  "id": "383693",
  "bbox": [
    9.390035,
    45.852986,
    9.390035,
    45.852986
  ],
  "description": "An ancient place, cited: BAtlas 39 E2 Leucerae",
  "names": [
    "Leucerae",
    "Leukon",
    "Leuceris"
  ],
  "features": [
    {
      "type": "Feature",
      "geometry": {
        "type": "Point",
        "coordinates": [
          9.390035,
          45.852986
        ]
      },
      "properties": {
        "description": "representative point"
      }
    },
    {
      "geometry": {
        "type": "Point",
        "coordinates": [
          9.390035,
          45.852986
        ]
      },
      "id": "darmc-location-5463",
      "type": "Feature",
      "properties": {
        "description": "1:500,000 scale representative point location digitized from the Barrington Atlas of the Greek and Roman World by the Digital Atlas of Roman and Medieval Civilizations project at Harvard University.",
        "location_precision": "precise",
        "title": "DARMC location 5463",
        "link": "http://pleiades.stoa.org/places/383693/darmc-location-5463"
      }
    }
  ]
}