{
  "type": "FeatureCollection",
  "title": "Larius/Comacinus L.",
  "id": "383689",
  "bbox": [
    9.266667,
    46.0,
    9.266667,
    46.0
  ],
  "description": "Larius/Comacinus L. (Lake Como). Until the 12th century CE, \"Comacinus\" was the name commonly used to refer only to the eastern branch of Lake Como—extending from Bellagio south to Brivio—and the surrounding area (\"Comacina\"). \"Larius\", \"Cumanus\", and \"Comensis\" were the names commonly used to denote the remaining part of Lake Como. After that date, the names \"Comacinus\", \"Cumanus\", \"Comensis\", and \"Larius\" gradually began to be used interchangeably to refer to the entire lake.",
  "names": [
    "Larius",
    "Comacinus L.",
    "Comus L."
  ],
  "features": [
    {
      "type": "Feature",
      "geometry": {
        "type": "Point",
        "coordinates": [
          9.266667,
          46.0
        ]
      },
      "properties": {
        "description": "representative point"
      }
    },
    {
      "geometry": {
        "type": "Point",
        "coordinates": [
          9.266667,
          46
        ]
      },
      "id": "location-of-larius-comacinus-l",
      "type": "Feature",
      "properties": {
        "description": "coordinates after GeoHack, verified in Google Earth.",
        "location_precision": "precise",
        "title": "location of Lake Como",
        "link": "http://pleiades.stoa.org/places/383689/location-of-larius-comacinus-l"
      }
    }
  ]
}