{
  "type": "FeatureCollection",
  "title": "Withdrawn: Columbarium of Constantine",
  "id": "384365956",
  "bbox": [
    12.5294367,
    41.8567297,
    12.5294367,
    41.8567297
  ],
  "description": "Doublet for https://pleiades.stoa.org/places/541774889",
  "connectsWith": [
    "423025"
  ],
  "names": [
    "Columbarium of Constantine"
  ],
  "features": [
    {
      "type": "Feature",
      "geometry": {
        "type": "Point",
        "coordinates": [
          12.5294367,
          41.8567297
        ]
      },
      "properties": {
        "description": "representative point"
      }
    },
    {
      "geometry": {
        "type": "Point",
        "coordinates": [
          12.5294367,
          41.8567297
        ]
      },
      "id": "osm-location-of-colombario-costantiniano",
      "type": "Feature",
      "properties": {
        "description": "Representative location based on OpenStreetMap.",
        "location_precision": "precise",
        "title": "OSM location of  Colombario Costantiniano",
        "link": "http://pleiades.stoa.org/errata/384365956/osm-location-of-colombario-costantiniano"
      }
    }
  ]
}