{
  "type": "FeatureCollection",
  "title": "Horti Caesaris",
  "id": "387197668",
  "description": "An estate of Iulius Caesar located in the Transtiberim, perhaps at the first mile of the Via Portuensis. According to Cicero, Caesar hosted Cleopatra VII here during her time in Rome.",
  "connectsWith": [
    "423025",
    "303999556",
    "217953464"
  ],
  "features": [
    {
      "type": "Feature",
      "geometry": null,
      "properties": {
        "description": "representative point"
      }
    }
  ]
}