{
  "type": "FeatureCollection",
  "title": "Arra",
  "id": "389026185",
  "bbox": [
    36.6777062,
    35.6470788,
    36.6777062,
    35.6470788
  ],
  "description": "Place in Chalcidice in northern Syria, on the road from Chalkis to Ephiphania, mentioned in the Antonine Itinerary.",
  "features": [
    {
      "type": "Feature",
      "geometry": {
        "type": "Point",
        "coordinates": [
          36.6777062,
          35.6470788
        ]
      },
      "properties": {
        "description": "representative point"
      }
    },
    {
      "geometry": {
        "type": "Point",
        "coordinates": [
          36.6777062,
          35.6470788
        ]
      },
      "id": "modern-location-of-maarrat-an-numan",
      "type": "Feature",
      "properties": {
        "description": "Location based on OpenStreetMap",
        "location_precision": "precise",
        "title": "Modern location of Ma'arrat an-Nu'man",
        "link": "http://pleiades.stoa.org/places/389026185/modern-location-of-maarrat-an-numan"
      }
    }
  ]
}