{
  "type": "FeatureCollection",
  "title": "Pago Triopio",
  "id": "390922209",
  "bbox": [
    12.5207022,
    41.8520567,
    12.524434,
    41.857844
  ],
  "description": "The Pago Triopio is a monumentalized area located near the mausoleum of Caecilia Metella between the second and fourth mile of the Via Appia. The residence of Herodes Atticus was located here.",
  "connectsWith": [
    "356966898",
    "423064"
  ],
  "features": [
    {
      "type": "Feature",
      "geometry": {
        "type": "Point",
        "coordinates": [
          12.52437,
          41.85780765
        ]
      },
      "properties": {
        "description": "representative point"
      }
    }
  ]
}