{
  "type": "FeatureCollection",
  "title": "Mouza Emporion",
  "id": "39390",
  "bbox": [
    43.421475,
    13.261275,
    43.421475,
    13.261275
  ],
  "description": "An ancient place, cited: BAtlas 4 B3 Mouza Emporion",
  "names": [
    "Mouza Emporion",
    "Muza"
  ],
  "features": [
    {
      "type": "Feature",
      "geometry": {
        "type": "Point",
        "coordinates": [
          43.421475,
          13.261275
        ]
      },
      "properties": {
        "description": "representative point"
      }
    },
    {
      "geometry": {
        "type": "Point",
        "coordinates": [
          43.421475,
          13.261275
        ]
      },
      "id": "darmc-location-9685",
      "type": "Feature",
      "properties": {
        "description": "5M scale representative point location digitized from the Barrington Atlas of the Greek and Roman World by the Digital Atlas of Roman and Medieval Civilizations project at Harvard University.",
        "location_precision": "precise",
        "title": "DARMC location 9685",
        "link": "http://pleiades.stoa.org/places/39390/darmc-location-9685"
      }
    }
  ]
}