{
  "type": "FeatureCollection",
  "title": "Zingis (promontory)",
  "id": "40352",
  "description": "Zingis Pr. was a promontory of east Africa. Its precise location is uncertain, but may have been south of Ras Hafun in modern Somalia.",
  "names": [
    "Zingis Pr.",
    "Zingis"
  ],
  "features": [
    {
      "type": "Feature",
      "geometry": null,
      "properties": {
        "description": "representative point"
      }
    },
    {
      "geometry": null,
      "id": "batlas-location",
      "type": "Feature",
      "properties": {
        "description": null,
        "location_precision": "unlocated",
        "title": "Barrington Atlas location",
        "link": "http://pleiades.stoa.org/places/40352/batlas-location"
      }
    }
  ]
}