{
  "type": "FeatureCollection",
  "title": "Opimiano",
  "id": "422992",
  "bbox": [
    12.6423673,
    41.801655,
    12.642923,
    41.8019219
  ],
  "description": "An ancient place, cited: BAtlas 43 C2 Opimiano",
  "connectsWith": [
    "422940"
  ],
  "names": [
    "Opimiano"
  ],
  "features": [
    {
      "type": "Feature",
      "geometry": {
        "type": "Point",
        "coordinates": [
          12.64264515,
          41.80178845
        ]
      },
      "properties": {
        "description": "representative point"
      }
    },
    {
      "geometry": {
        "type": "Point",
        "coordinates": [
          12.642923,
          41.801655
        ]
      },
      "id": "location-1",
      "type": "Feature",
      "properties": {
        "description": "Coordinates following vici.org",
        "location_precision": "precise",
        "title": "vici.org location of Opimiano",
        "link": "http://pleiades.stoa.org/places/422992/location-1"
      }
    },
    {
      "geometry": {
        "type": "Point",
        "coordinates": [
          12.6423673,
          41.8019219
        ]
      },
      "id": "osm-location-of-resti-della-villa-di-rufino",
      "type": "Feature",
      "properties": {
        "description": "Representative location based on OpenStreetMap",
        "location_precision": "precise",
        "title": "OSM location of Resti della Villa di Rufino Vinicio Opimiano",
        "link": "http://pleiades.stoa.org/places/422992/osm-location-of-resti-della-villa-di-rufino"
      }
    }
  ]
}