{
  "type": "FeatureCollection",
  "title": "Aqua Tepula",
  "id": "423566",
  "bbox": [
    12.5717502,
    41.8363398,
    12.5725873,
    41.8365574
  ],
  "description": "The Aqua Tepula was an aqueduct built in 126 BC by the censors G. Servilius Caepio and L. Cassius Longinus.",
  "connectsWith": [
    "423025",
    "422965"
  ],
  "names": [
    "Aqua Tepula"
  ],
  "features": [
    {
      "type": "Feature",
      "geometry": {
        "type": "Point",
        "coordinates": [
          12.5721689763,
          41.8364509577
        ]
      },
      "properties": {
        "description": "representative point"
      }
    },
    {
      "geometry": {
        "type": "LineString",
        "coordinates": [
          [
            12.5719513,
            41.8364075
          ],
          [
            12.5724965,
            41.8363398
          ],
          [
            12.5725873,
            41.8364027
          ],
          [
            12.5725549,
            41.8364752
          ],
          [
            12.571854,
            41.8365574
          ],
          [
            12.5717502,
            41.8365139
          ],
          [
            12.5717826,
            41.8364317
          ],
          [
            12.5719513,
            41.8364075
          ]
        ]
      },
      "id": "osm-location-of-aqua-tepula",
      "type": "Feature",
      "properties": {
        "description": "Representative location based on OpenStreetMap",
        "location_precision": "precise",
        "title": "OSM location of Aqua Tepula",
        "link": "http://pleiades.stoa.org/places/423566/osm-location-of-aqua-tepula"
      }
    }
  ]
}