{
  "type": "FeatureCollection",
  "title": "Aqua Alexandrina",
  "id": "423557",
  "bbox": [
    12.5406219,
    41.8710148,
    12.7325333,
    41.8884884
  ],
  "description": "The Aqua Alexandrina was an ancient Roman aqueduct that carried water 22.4 km from Pantano Borghese to the Baths of Alexander in the Campus Martius. It was in use from the third to the eighth century AD.",
  "connectsWith": [
    "423025"
  ],
  "names": [
    "Aqua Alexandrina"
  ],
  "features": [
    {
      "type": "Feature",
      "geometry": {
        "type": "Point",
        "coordinates": [
          12.6287504478,
          41.8774002416
        ]
      },
      "properties": {
        "description": "representative point"
      }
    },
    {
      "geometry": {
        "type": "MultiLineString",
        "coordinates": [
          [
            [
              12.5406219,
              41.8751803
            ],
            [
              12.5411234,
              41.8752834
            ],
            [
              12.5412799,
              41.8753275
            ],
            [
              12.5412968,
              41.8753322
            ],
            [
              12.5413188,
              41.8753388
            ]
          ],
          [
            [
              12.5454977,
              41.8760681
            ],
            [
              12.5455709,
              41.8760771
            ],
            [
              12.5462319,
              41.8763579
            ]
          ],
          [
            [
              12.5414368,
              41.8753787
            ],
            [
              12.5414787,
              41.8753945
            ],
            [
              12.5415259,
              41.8754116
            ],
            [
              12.5416696,
              41.8754666
            ],
            [
              12.5429781,
              41.8759572
            ],
            [
              12.5434902,
              41.8759513
            ],
            [
              12.5435626,
              41.8759509
            ],
            [
              12.5436302,
              41.8759532
            ],
            [
              12.5436438,
              41.875953
            ],
            [
              12.5437077,
              41.8759539
            ],
            [
              12.5437515,
              41.8759541
            ],
            [
              12.5442732,
              41.8759597
            ],
            [
              12.5442961,
              41.8759599
            ],
            [
              12.5449909,
              41.8759879
            ],
            [
              12.5451545,
              41.8760038
            ],
            [
              12.5453637,
              41.8760398
            ]
          ],
          [
            [
              12.6112326,
              41.8814391
            ],
            [
              12.6121303,
              41.8818913
            ],
            [
              12.6123771,
              41.8819592
            ],
            [
              12.6128084,
              41.8820567
            ],
            [
              12.6132166,
              41.8821968
            ]
          ],
          [
            [
              12.570983,
              41.8779413
            ],
            [
              12.5695197,
              41.877695
            ]
          ],
          [
            [
              12.5757899,
              41.8787796
            ],
            [
              12.5752295,
              41.8786724
            ],
            [
              12.5744901,
              41.8785507
            ],
            [
              12.5737537,
              41.8784363
            ],
            [
              12.5731377,
              41.8783189
            ],
            [
              12.5728836,
              41.878278
            ],
            [
              12.5728219,
              41.8782688
            ],
            [
              12.5727474,
              41.8782591
            ],
            [
              12.5726772,
              41.8782436
            ],
            [
              12.5726099,
              41.8782316
            ],
            [
              12.5725399,
              41.8782202
            ],
            [
              12.5724657,
              41.8782062
            ],
            [
              12.5723995,
              41.8781949
            ],
            [
              12.571799,
              41.8780842
            ]
          ],
          [
            [
              12.5758444,
              41.8787941
            ],
            [
              12.5763309,
              41.878881
            ]
          ],
          [
            [
              12.5763951,
              41.8788897
            ],
            [
              12.5768348,
              41.8789578
            ]
          ],
          [
            [
              12.5769477,
              41.8789679
            ],
            [
              12.5771326,
              41.8789969
            ]
          ],
          [
            [
              12.5772396,
              41.8790114
            ],
            [
              12.5773233,
              41.8790244
            ]
          ],
          [
            [
              12.5693874,
              41.8776704
            ],
            [
              12.5690107,
              41.8776158
            ],
            [
              12.5689463,
              41.8776065
            ],
            [
              12.5688923,
              41.877596
            ]
          ],
          [
            [
              12.5688426,
              41.8775881
            ],
            [
              12.5679036,
              41.8774401
            ]
          ],
          [
            [
              12.5674305,
              41.8773577
            ],
            [
              12.5671225,
              41.8773303
            ]
          ],
          [
            [
              12.5851768,
              41.8795867
            ],
            [
              12.5873259,
              41.8798498
            ],
            [
              12.5887422,
              41.8800163
            ],
            [
              12.5890856,
              41.8800623
            ],
            [
              12.5892297,
              41.8800815
            ]
          ],
          [
            [
              12.5905366,
              41.8801449
            ],
            [
              12.5908706,
              41.880102
            ]
          ],
          [
            [
              12.5968576,
              41.8805716
            ],
            [
              12.5974394,
              41.8806751
            ]
          ],
          [
            [
              12.5980648,
              41.880765
            ],
            [
              12.5984886,
              41.8808429
            ]
          ],
          [
            [
              12.6059265,
              41.880588
            ],
            [
              12.6048678,
              41.8805861
            ],
            [
              12.6041657,
              41.8806499
            ],
            [
              12.6031041,
              41.8808348
            ],
            [
              12.6019413,
              41.8809956
            ]
          ],
          [
            [
              12.6073468,
              41.8805471
            ],
            [
              12.6061183,
              41.880571
            ]
          ],
          [
            [
              12.5803921,
              41.8794138
            ],
            [
              12.5808613,
              41.8794097
            ]
          ],
          [
            [
              12.581334,
              41.879407
            ],
            [
              12.5814476,
              41.8794063
            ]
          ],
          [
            [
              12.581556,
              41.8794057
            ],
            [
              12.5816517,
              41.8794051
            ]
          ],
          [
            [
              12.582519,
              41.8793949
            ],
            [
              12.582718,
              41.8793958
            ]
          ],
          [
            [
              12.5948581,
              41.8802125
            ],
            [
              12.5943836,
              41.8801185
            ]
          ],
          [
            [
              12.6152786,
              41.8834577
            ],
            [
              12.6155366,
              41.8836108
            ]
          ],
          [
            [
              12.615601,
              41.8836472
            ],
            [
              12.6157361,
              41.8837228
            ]
          ],
          [
            [
              12.6159545,
              41.8838392
            ],
            [
              12.6162292,
              41.8839872
            ],
            [
              12.6162671,
              41.8839939
            ]
          ],
          [
            [
              12.6168618,
              41.8840987
            ],
            [
              12.6170133,
              41.8841236
            ]
          ],
          [
            [
              12.6163612,
              41.884012
            ],
            [
              12.6164189,
              41.8840259
            ]
          ],
          [
            [
              12.6173598,
              41.8841806
            ],
            [
              12.617594800000001,
              41.8842156
            ]
          ],
          [
            [
              12.6183837,
              41.8842176
            ],
            [
              12.6185446,
              41.8842176
            ]
          ],
          [
            [
              12.6191287,
              41.88423
            ],
            [
              12.6195884,
              41.8842718
            ]
          ],
          [
            [
              12.6323548,
              41.8884884
            ],
            [
              12.6321059,
              41.8884443
            ]
          ],
          [
            [
              12.7156931,
              41.8727565
            ],
            [
              12.716208,
              41.8724146
            ]
          ],
          [
            [
              12.7198488,
              41.8710148
            ],
            [
              12.7211154,
              41.8713695
            ],
            [
              12.721913,
              41.8715549
            ],
            [
              12.72266,
              41.8716973
            ],
            [
              12.7228801,
              41.8717779
            ],
            [
              12.7238509,
              41.8721649
            ],
            [
              12.7239086,
              41.8722267
            ],
            [
              12.7243525,
              41.8729737
            ],
            [
              12.7244857,
              41.873167
            ],
            [
              12.7246101,
              41.8732416
            ],
            [
              12.7251775,
              41.8734269
            ],
            [
              12.726534,
              41.8743646
            ],
            [
              12.7272228,
              41.8746335
            ],
            [
              12.7276598,
              41.8747375
            ],
            [
              12.7282485,
              41.8747601
            ],
            [
              12.7297537,
              41.8747375
            ],
            [
              12.7306216,
              41.8751374
            ],
            [
              12.7325333,
              41.8752097
            ]
          ]
        ]
      },
      "id": "osm-location-of-acquedotto-alessandrino",
      "type": "Feature",
      "properties": {
        "description": "Representative location based on OpenStreetMap",
        "location_precision": "precise",
        "title": "OSM location of Acquedotto Alessandrino",
        "link": "http://pleiades.stoa.org/places/423557/osm-location-of-acquedotto-alessandrino"
      }
    }
  ]
}