{
  "type": "FeatureCollection",
  "title": "Temple A (Selinus)",
  "id": "42718908",
  "bbox": [
    12.8250794,
    37.5824474,
    12.8255515,
    37.5826419
  ],
  "description": "Temple A (Selinus) was built between 490 and 460 BCE. It is a peristyle temple with a plan of 6 x 14 columns (order height of 6.23 m).",
  "connectsWith": [
    "462489"
  ],
  "features": [
    {
      "type": "Feature",
      "geometry": {
        "type": "Point",
        "coordinates": [
          12.825317547,
          37.5825455337
        ]
      },
      "properties": {
        "description": "representative point"
      }
    },
    {
      "geometry": {
        "type": "MultiLineString",
        "coordinates": [
          [
            [
              12.8251049,
              37.5826419
            ],
            [
              12.8250794,
              37.5824931
            ]
          ],
          [
            [
              12.8251049,
              37.5826419
            ],
            [
              12.8255515,
              37.5826015
            ],
            [
              12.8255313,
              37.5824474
            ],
            [
              12.8250794,
              37.5824931
            ]
          ]
        ]
      },
      "id": "osm-location-of-temple-a-selinus",
      "type": "Feature",
      "properties": {
        "description": "Representative location based on OpenStreetMap",
        "location_precision": "precise",
        "title": "OSM location of Temple A (Selinus)",
        "link": "http://pleiades.stoa.org/places/42718908/osm-location-of-temple-a-selinus"
      }
    }
  ]
}