{
  "type": "FeatureCollection",
  "title": "Woodmancote Roman villa",
  "id": "444467901",
  "bbox": [
    -2.00713,
    51.7832,
    -2.00713,
    51.7832
  ],
  "description": "A minor Roman villa occupied from the first to the third century CE near a hillfort at Woodmancote, Gloucestershire, United Kingdom.",
  "features": [
    {
      "type": "Feature",
      "geometry": {
        "type": "Point",
        "coordinates": [
          -2.00713,
          51.7832
        ]
      },
      "properties": {
        "description": "representative point"
      }
    },
    {
      "geometry": {
        "type": "Point",
        "coordinates": [
          -2.00713,
          51.7832
        ]
      },
      "id": "wikidata-location-woodmancote-roman-villa",
      "type": "Feature",
      "properties": {
        "description": "Coordinates following GeoHack",
        "location_precision": "precise",
        "title": "Imagery location of Woodmancote Roman villa",
        "link": "http://pleiades.stoa.org/places/444467901/wikidata-location-woodmancote-roman-villa"
      }
    }
  ]
}