{
  "type": "FeatureCollection",
  "title": "Puntal dels Llops",
  "id": "445647938",
  "bbox": [
    -0.5420529,
    39.701679,
    -0.5415836,
    39.7021774
  ],
  "description": "Puntal dels Llops is the site of an Iberian hillfort built in the fifth or fourth century BCE and destroyed in the early second century BCE.",
  "names": [
    "Puntal dels Llops"
  ],
  "features": [
    {
      "type": "Feature",
      "geometry": {
        "type": "Point",
        "coordinates": [
          -0.541835326316,
          39.7019542621
        ]
      },
      "properties": {
        "description": "representative point"
      }
    },
    {
      "geometry": {
        "type": "LineString",
        "coordinates": [
          [
            -0.5415836,
            39.7021485
          ],
          [
            -0.541648,
            39.7020051
          ],
          [
            -0.5418505,
            39.7017058
          ],
          [
            -0.541943,
            39.701679
          ],
          [
            -0.5420248,
            39.7017502
          ],
          [
            -0.5420529,
            39.7018637
          ],
          [
            -0.5420248,
            39.7019803
          ],
          [
            -0.5419496,
            39.7020875
          ],
          [
            -0.5418438,
            39.7021619
          ],
          [
            -0.5416922,
            39.7021774
          ],
          [
            -0.5415836,
            39.7021485
          ]
        ]
      },
      "id": "osm-location-of-puntal-dels-llops",
      "type": "Feature",
      "properties": {
        "description": "Representative location based on OpenStreetMap",
        "location_precision": "precise",
        "title": "OSM location of Puntal dels Llops",
        "link": "http://pleiades.stoa.org/places/445647938/osm-location-of-puntal-dels-llops"
      }
    }
  ]
}