{
  "type": "FeatureCollection",
  "title": "Martyrion at Aphrodisias",
  "id": "46120818",
  "bbox": [
    28.7228797,
    37.7061744,
    28.7231977,
    37.7063625
  ],
  "description": "The Roman Tetrakionion at Aphrodisias has been identified as a Martyrion. Its date of construction is uncertain, ranging from as early as the late second century CE to as late as the 5th-6th century CE.",
  "connectsWith": [
    "638753"
  ],
  "names": [
    "Martyrion at Aphrodisias"
  ],
  "features": [
    {
      "type": "Feature",
      "geometry": {
        "type": "Point",
        "coordinates": [
          28.7230386842,
          37.7062684736
        ]
      },
      "properties": {
        "description": "representative point"
      }
    },
    {
      "geometry": {
        "type": "LineString",
        "coordinates": [
          [
            28.7228797,
            37.7063455
          ],
          [
            28.7231823,
            37.7063625
          ],
          [
            28.7231977,
            37.7061915
          ],
          [
            28.7228951,
            37.7061744
          ],
          [
            28.7228797,
            37.7063455
          ]
        ]
      },
      "id": "osm-location-of-church",
      "type": "Feature",
      "properties": {
        "description": "Representative location based on OpenStreetMap",
        "location_precision": "precise",
        "title": "OSM location of Church",
        "link": "http://pleiades.stoa.org/places/46120818/osm-location-of-church"
      }
    }
  ]
}