{
  "type": "FeatureCollection",
  "title": "Colle Rotondo",
  "id": "462164",
  "bbox": [
    13.35685,
    37.437918,
    13.35685,
    37.437918
  ],
  "description": "At Colle Rotondo (or Collerotondo), Paolo Orsi identified the remains of an area of habitation and an associated necropolis. Surface scatters of Hellenistic pottery were observed.",
  "connectsWith": [
    "462492"
  ],
  "features": [
    {
      "type": "Feature",
      "geometry": {
        "type": "Point",
        "coordinates": [
          13.35685,
          37.437918
        ]
      },
      "properties": {
        "description": "representative point"
      }
    },
    {
      "geometry": {
        "type": "Point",
        "coordinates": [
          13.35685,
          37.437918
        ]
      },
      "id": "darmc-location-7021",
      "type": "Feature",
      "properties": {
        "description": "500K scale point location",
        "location_precision": "precise",
        "title": "DARMC location 7021",
        "link": "http://pleiades.stoa.org/places/462164/darmc-location-7021"
      }
    }
  ]
}