{
  "type": "FeatureCollection",
  "title": "Apollonia",
  "id": "481728",
  "bbox": [
    19.466667,
    40.716667,
    19.4760381,
    40.7277514
  ],
  "description": "Ancient Greek trade colony which developed into an independent polis, and later a Roman city, in southern Illyria",
  "connectsWith": [
    "481726",
    "981531"
  ],
  "names": [
    "Apollonia",
    "Apollōnía"
  ],
  "features": [
    {
      "type": "Feature",
      "geometry": {
        "type": "Point",
        "coordinates": [
          19.469259975,
          40.72019121
        ]
      },
      "properties": {
        "description": "representative point"
      }
    },
    {
      "geometry": {
        "type": "Point",
        "coordinates": [
          19.466667,
          40.716667
        ]
      },
      "id": "dare-location",
      "type": "Feature",
      "properties": {
        "description": "Representative point location, site precision",
        "location_precision": "precise",
        "title": "DARE Location",
        "link": "http://pleiades.stoa.org/places/481728/dare-location"
      }
    },
    {
      "geometry": {
        "type": "LineString",
        "coordinates": [
          [
            19.4689061,
            40.7252147
          ],
          [
            19.4690013,
            40.7252411
          ],
          [
            19.4691086,
            40.7252391
          ],
          [
            19.4691944,
            40.7252167
          ],
          [
            19.4692695,
            40.7251821
          ],
          [
            19.4693741,
            40.7251618
          ],
          [
            19.4694734,
            40.725172
          ],
          [
            19.469564600000002,
            40.7252106
          ],
          [
            19.4696236,
            40.7252858
          ],
          [
            19.4696424,
            40.725359
          ],
          [
            19.4696397,
            40.7254423
          ],
          [
            19.4696236,
            40.7255419
          ],
          [
            19.4696209,
            40.7256049
          ],
          [
            19.4696477,
            40.7257025
          ],
          [
            19.4697067,
            40.725798
          ],
          [
            19.4697792,
            40.7258672
          ],
          [
            19.4700045,
            40.725979
          ],
          [
            19.4702137,
            40.726044
          ],
          [
            19.4704256,
            40.7260684
          ],
          [
            19.4706234,
            40.7261125
          ],
          [
            19.47074,
            40.7261704
          ],
          [
            19.4708333,
            40.7262551
          ],
          [
            19.4708723,
            40.7263474
          ],
          [
            19.4708731,
            40.7264359
          ],
          [
            19.4708343,
            40.7265338
          ],
          [
            19.4706294,
            40.7267636
          ],
          [
            19.4705543,
            40.7268469
          ],
          [
            19.4705382,
            40.7269241
          ],
          [
            19.4705677,
            40.7269851
          ],
          [
            19.4707421,
            40.7271396
          ],
          [
            19.4708225,
            40.7271945
          ],
          [
            19.4708829,
            40.727225
          ],
          [
            19.4709607,
            40.7272148
          ],
          [
            19.4710921,
            40.7271315
          ],
          [
            19.4714649,
            40.7268591
          ],
          [
            19.4715819,
            40.7268053
          ],
          [
            19.4717626,
            40.7268103
          ],
          [
            19.4719182,
            40.7268611
          ],
          [
            19.4720791,
            40.7269567
          ],
          [
            19.4726773,
            40.7275502
          ],
          [
            19.4728141,
            40.7276559
          ],
          [
            19.4729106,
            40.7277108
          ],
          [
            19.4730689,
            40.7277514
          ],
          [
            19.473152,
            40.7277514
          ],
          [
            19.4732352,
            40.7277311
          ],
          [
            19.4734712,
            40.727599
          ],
          [
            19.4736527,
            40.7275129
          ],
          [
            19.4738266,
            40.7274789
          ],
          [
            19.4740345,
            40.7274831
          ],
          [
            19.4742598,
            40.7274852
          ],
          [
            19.474477,
            40.7274445
          ],
          [
            19.4747345,
            40.7273185
          ],
          [
            19.4749947,
            40.7271416
          ],
          [
            19.4752307,
            40.7269872
          ],
          [
            19.4754668,
            40.726792
          ],
          [
            19.475617,
            40.7265928
          ],
          [
            19.4757001,
            40.7264261
          ],
          [
            19.475735,
            40.7263103
          ],
          [
            19.4757672,
            40.725983
          ],
          [
            19.475794,
            40.7258265
          ],
          [
            19.4758557,
            40.7257066
          ],
          [
            19.4759362,
            40.7255521
          ],
          [
            19.4760166,
            40.7254261
          ],
          [
            19.4760354,
            40.7253468
          ],
          [
            19.4760381,
            40.7252614
          ],
          [
            19.4760113,
            40.7251374
          ],
          [
            19.4759603,
            40.7250094
          ],
          [
            19.4758745,
            40.7248996
          ],
          [
            19.4757055,
            40.7247492
          ],
          [
            19.4755285,
            40.7246069
          ],
          [
            19.4752227,
            40.7244402
          ],
          [
            19.4750564,
            40.724306
          ],
          [
            19.4749437,
            40.7241028
          ],
          [
            19.4749062,
            40.7239036
          ],
          [
            19.4749062,
            40.7237125
          ],
          [
            19.4748418,
            40.723558
          ],
          [
            19.4747399,
            40.7234279
          ],
          [
            19.4746541,
            40.7233161
          ],
          [
            19.4745949,
            40.7228312
          ],
          [
            19.4746543,
            40.7226555
          ],
          [
            19.474705,
            40.7225172
          ],
          [
            19.4747399,
            40.7223912
          ],
          [
            19.4747319,
            40.7222265
          ],
          [
            19.4746675,
            40.7220619
          ],
          [
            19.4745897,
            40.7219379
          ],
          [
            19.4744905,
            40.7218505
          ],
          [
            19.4743751,
            40.7218017
          ],
          [
            19.474241,
            40.721761
          ],
          [
            19.4741257,
            40.7217407
          ],
          [
            19.4740425,
            40.7217143
          ],
          [
            19.4739379,
            40.7216675
          ],
          [
            19.4738709,
            40.7216025
          ],
          [
            19.473844,
            40.7215455
          ],
          [
            19.4738347,
            40.7214906
          ],
          [
            19.4738561,
            40.721391
          ],
          [
            19.47384,
            40.7212833
          ],
          [
            19.4737917,
            40.7211695
          ],
          [
            19.473726,
            40.7210546
          ],
          [
            19.473718,
            40.7210099
          ],
          [
            19.4737341,
            40.7209641
          ],
          [
            19.4737636,
            40.7209306
          ],
          [
            19.4738119,
            40.7209021
          ],
          [
            19.4739218,
            40.7208574
          ],
          [
            19.4739567,
            40.720829
          ],
          [
            19.4739661,
            40.7207924
          ],
          [
            19.473958,
            40.7207487
          ],
          [
            19.4739138,
            40.7206867
          ],
          [
            19.4737475,
            40.7205383
          ],
          [
            19.4736684,
            40.7204824
          ],
          [
            19.4735812,
            40.7204437
          ],
          [
            19.4734176,
            40.720401
          ],
          [
            19.4731976,
            40.7203767
          ],
          [
            19.4729521,
            40.7203509
          ],
          [
            19.4728433,
            40.7203172
          ],
          [
            19.4726651,
            40.7202785
          ],
          [
            19.4724699,
            40.7202402
          ],
          [
            19.4723126,
            40.7202101
          ],
          [
            19.4721992,
            40.7201599
          ],
          [
            19.4720845,
            40.7201022
          ],
          [
            19.4720121,
            40.7200422
          ],
          [
            19.4719048,
            40.7199853
          ],
          [
            19.4718646,
            40.7199356
          ],
          [
            19.471827,
            40.7198887
          ],
          [
            19.4717734,
            40.7198461
          ],
          [
            19.4717104,
            40.7198156
          ],
          [
            19.4716314,
            40.7197821
          ],
          [
            19.471572,
            40.7197643
          ],
          [
            19.471479,
            40.7197502
          ],
          [
            19.4713764,
            40.7197373
          ],
          [
            19.4712558,
            40.71972
          ],
          [
            19.4711207,
            40.7197056
          ],
          [
            19.4710412,
            40.7196723
          ],
          [
            19.4709888,
            40.7196347
          ],
          [
            19.4709218,
            40.7195818
          ],
          [
            19.4708413,
            40.7195493
          ],
          [
            19.4706938,
            40.7195249
          ],
          [
            19.4705275,
            40.7194761
          ],
          [
            19.4704175,
            40.7194171
          ],
          [
            19.4703263,
            40.7193521
          ],
          [
            19.4701936,
            40.7192291
          ],
          [
            19.4701131,
            40.7191305
          ],
          [
            19.470042,
            40.7190797
          ],
          [
            19.4699615,
            40.7190482
          ],
          [
            19.4699106,
            40.7190441
          ],
          [
            19.4698556,
            40.7190472
          ],
          [
            19.4698113,
            40.7190644
          ],
          [
            19.4697751,
            40.7190817
          ],
          [
            19.4697054,
            40.7191447
          ],
          [
            19.4696383,
            40.719226
          ],
          [
            19.4696088,
            40.719285
          ],
          [
            19.4696008,
            40.7194009
          ],
          [
            19.4696035,
            40.7195188
          ],
          [
            19.4696357,
            40.7199619
          ],
          [
            19.4696491,
            40.7200351
          ],
          [
            19.4696759,
            40.7201266
          ],
          [
            19.4697027,
            40.7202222
          ],
          [
            19.4697027,
            40.7203096
          ],
          [
            19.4696973,
            40.7203726
          ],
          [
            19.4696839,
            40.720458
          ],
          [
            19.4696759,
            40.7206308
          ],
          [
            19.4697269,
            40.7212243
          ],
          [
            19.4697537,
            40.7213321
          ],
          [
            19.4698556,
            40.7215293
          ],
          [
            19.469979,
            40.7216939
          ],
          [
            19.4700004,
            40.7217549
          ],
          [
            19.4700058,
            40.7218789
          ],
          [
            19.4699468,
            40.7222611
          ],
          [
            19.4699092,
            40.7224888
          ],
          [
            19.4698502,
            40.722692
          ],
          [
            19.4697054,
            40.7229156
          ],
          [
            19.4695552,
            40.7230986
          ],
          [
            19.4693782,
            40.7232124
          ],
          [
            19.4688417,
            40.7234076
          ],
          [
            19.4684823,
            40.7235621
          ],
          [
            19.4679781,
            40.723806
          ],
          [
            19.4677367,
            40.7239686
          ],
          [
            19.467624,
            40.7241231
          ],
          [
            19.4675811,
            40.7242735
          ],
          [
            19.4675999,
            40.724428
          ],
          [
            19.4676723,
            40.7244951
          ],
          [
            19.4677715,
            40.724554
          ],
          [
            19.4679271,
            40.7246028
          ],
          [
            19.4680585,
            40.724617
          ],
          [
            19.4681899,
            40.7246231
          ],
          [
            19.4683831,
            40.7246313
          ],
          [
            19.4685011,
            40.7246516
          ],
          [
            19.4686111,
            40.7246923
          ],
          [
            19.4686808,
            40.7247695
          ],
          [
            19.4687344,
            40.7249911
          ],
          [
            19.4687532,
            40.725048
          ],
          [
            19.4687934,
            40.7251313
          ],
          [
            19.4689061,
            40.7252147
          ]
        ]
      },
      "id": "osm-location-apollonia-archaeological-park",
      "type": "Feature",
      "properties": {
        "description": "Location based on OpenStreetMap. Dates after BAtlas.",
        "location_precision": "precise",
        "title": "OSM Location: Apollonia Archaeological Park",
        "link": "http://pleiades.stoa.org/places/481728/osm-location-apollonia-archaeological-park"
      }
    }
  ]
}