{
  "type": "FeatureCollection",
  "title": "Lychnidos",
  "id": "481900",
  "bbox": [
    20.793813,
    41.114619,
    20.793813,
    41.114619
  ],
  "description": "Lychnidos (modern Ohrid, Macedonia) was an ancient city. It was listed as a UNESCO World Heritage Site in 1979 and 1980 for both its cultural and natural heritage.",
  "connectsWith": [
    "196789404",
    "981531"
  ],
  "names": [
    "Lychnidos",
    "Lychnidós",
    "Oḫri",
    "Ohrid",
    "Lignido"
  ],
  "features": [
    {
      "type": "Feature",
      "geometry": {
        "type": "Point",
        "coordinates": [
          20.793813,
          41.114619
        ]
      },
      "properties": {
        "description": "representative point"
      }
    },
    {
      "geometry": {
        "type": "Point",
        "coordinates": [
          20.793813,
          41.114619
        ]
      },
      "id": "dare-location",
      "type": "Feature",
      "properties": {
        "description": "Representative point location, site precision",
        "location_precision": "precise",
        "title": "DARE Location",
        "link": "http://pleiades.stoa.org/places/481900/dare-location"
      }
    }
  ]
}