{
  "type": "FeatureCollection",
  "title": "Tempio Grande at Vulci",
  "id": "48210386",
  "bbox": [
    11.6281174,
    42.419498,
    11.6285239,
    42.4198696
  ],
  "description": "A major urban sanctuary at Vulci with a long period of use, stretching from the archaic period into the Roman period.",
  "connectsWith": [
    "413393"
  ],
  "names": [
    "Tempio Grande"
  ],
  "features": [
    {
      "type": "Feature",
      "geometry": {
        "type": "Point",
        "coordinates": [
          11.62832065,
          42.4196838
        ]
      },
      "properties": {
        "description": "representative point"
      }
    },
    {
      "geometry": {
        "type": "LineString",
        "coordinates": [
          [
            11.6281174,
            42.4195553
          ],
          [
            11.6282296,
            42.4198696
          ],
          [
            11.6285239,
            42.4198123
          ],
          [
            11.6284117,
            42.419498
          ],
          [
            11.6281174,
            42.4195553
          ]
        ]
      },
      "id": "osm-location-tempio-grande-vulci",
      "type": "Feature",
      "properties": {
        "description": "Representative location based on OpenStreetMap",
        "location_precision": "precise",
        "title": "OSM location: Tempio grande, Vulci",
        "link": "http://pleiades.stoa.org/places/48210386/osm-location-tempio-grande-vulci"
      }
    }
  ]
}