{
  "type": "FeatureCollection",
  "title": "Vigna Cartoni cistern",
  "id": "492046782",
  "bbox": [
    12.508935,
    41.870205,
    12.5092322,
    41.870364
  ],
  "description": "A monumental cistern in the located in what is now the Caffarella park that was likely once part of the estate of Herodes Atticus.",
  "features": [
    {
      "type": "Feature",
      "geometry": {
        "type": "Point",
        "coordinates": [
          12.509083614,
          41.8702845175
        ]
      },
      "properties": {
        "description": "representative point"
      }
    },
    {
      "geometry": {
        "type": "LineString",
        "coordinates": [
          [
            12.5089758,
            41.870364
          ],
          [
            12.5092322,
            41.8702619
          ],
          [
            12.5091914,
            41.870205
          ],
          [
            12.508935,
            41.8703072
          ],
          [
            12.5089758,
            41.870364
          ]
        ]
      },
      "id": "osm-location-of-cisterna-monumentale",
      "type": "Feature",
      "properties": {
        "description": "Location based on OpenStreetMap",
        "location_precision": "precise",
        "title": "OSM location of Cisterna monumentale",
        "link": "http://pleiades.stoa.org/places/492046782/osm-location-of-cisterna-monumentale"
      }
    }
  ]
}