{
  "type": "FeatureCollection",
  "title": "Porta Ardeatina",
  "id": "495155542",
  "bbox": [
    12.4971045,
    41.8732434,
    12.4971045,
    41.8732434
  ],
  "description": "The Porta Ardeatina was a gate in the city walls of Rome. While it is presumed that the Via Ardeatina exited the walls at this point, debates remain over the nature of the gate; the possibility that it was a postern has been raised.",
  "connectsWith": [
    "529700371"
  ],
  "features": [
    {
      "type": "Feature",
      "geometry": {
        "type": "Point",
        "coordinates": [
          12.4971045,
          41.8732434
        ]
      },
      "properties": {
        "description": "representative point"
      }
    },
    {
      "geometry": {
        "type": "Point",
        "coordinates": [
          12.4971045,
          41.8732434
        ]
      },
      "id": "osm-location-of-porta-ardeatina",
      "type": "Feature",
      "properties": {
        "description": "Representative location based on OpenStreetMap",
        "location_precision": "precise",
        "title": "OSM location of Porta Ardeatina",
        "link": "http://pleiades.stoa.org/places/495155542/osm-location-of-porta-ardeatina"
      }
    }
  ]
}