{
  "type": "FeatureCollection",
  "title": "Chryse (sunken island)",
  "id": "499394756",
  "bbox": [
    25.0331782,
    39.7817004,
    25.4472239,
    40.036039
  ],
  "description": "An island described by both Homer and Sophocles. By the second century A.D., Pausanias describes it as sunken near the island of Lemnos. Its current location is unknown.",
  "connectsWith": [
    "550693"
  ],
  "names": [
    "Khryses"
  ],
  "features": [
    {
      "type": "Feature",
      "geometry": {
        "type": "Point",
        "coordinates": [
          25.2393084346,
          39.9118699976
        ]
      },
      "properties": {
        "description": "representative point"
      }
    }
  ]
}