{
  "type": "FeatureCollection",
  "title": "Plotino(u)polis",
  "id": "501572",
  "bbox": [
    26.5044563,
    41.3442847,
    26.5044563,
    41.3442847
  ],
  "description": "A Roman settlement located immediately to the southeast of modern Didymoteicho, Greece, Plotinopolis was founded by the Roman emperor Trajan in honor of his wife, Plotina. Roman-era material culture has been identified at the site, beginning with chance finds in the 1960s and continuing through subsequent scientific excavation.",
  "connectsWith": [
    "981552"
  ],
  "names": [
    "Plotinoupolis",
    "Plotinopolis",
    "Plotinopoli",
    "Didymoteikhon",
    "Didymoteicho",
    "Dimetoka"
  ],
  "features": [
    {
      "type": "Feature",
      "geometry": {
        "type": "Point",
        "coordinates": [
          26.5044563,
          41.3442847
        ]
      },
      "properties": {
        "description": "representative point"
      }
    },
    {
      "geometry": {
        "type": "Point",
        "coordinates": [
          26.5044563,
          41.3442847
        ]
      },
      "id": "osm-location-of-plotinopolis-excavation-site-hagia",
      "type": "Feature",
      "properties": {
        "description": "Representative location based on OpenStreetMap",
        "location_precision": "precise",
        "title": "OSM location of Plotinopolis (excavation site). Hagia Petra",
        "link": "http://pleiades.stoa.org/places/501572/osm-location-of-plotinopolis-excavation-site-hagia"
      }
    }
  ]
}