{
  "type": "FeatureCollection",
  "title": "Forum of Hippo Regius",
  "id": "504859129",
  "bbox": [
    7.7478202,
    36.8811636,
    7.748447,
    36.881947
  ],
  "description": "The Forum of Hippo Regius is one of the largest known Roman fora in north Africa.",
  "connectsWith": [
    "305090"
  ],
  "names": [
    "Forum of Hippo Regius⁠"
  ],
  "features": [
    {
      "type": "Feature",
      "geometry": {
        "type": "Point",
        "coordinates": [
          7.74813356004,
          36.8815552712
        ]
      },
      "properties": {
        "description": "representative point"
      }
    },
    {
      "geometry": {
        "type": "LineString",
        "coordinates": [
          [
            7.748298,
            36.881947
          ],
          [
            7.7478202,
            36.8818838
          ],
          [
            7.747969,
            36.8811636
          ],
          [
            7.748447,
            36.8812268
          ],
          [
            7.748298,
            36.881947
          ]
        ]
      },
      "id": "osm-location-of-forum-of-hippo-regius",
      "type": "Feature",
      "properties": {
        "description": "Representative location based on OpenStreetMap",
        "location_precision": "precise",
        "title": "OSM location of Forum of Hippo Regius",
        "link": "http://pleiades.stoa.org/places/504859129/osm-location-of-forum-of-hippo-regius"
      }
    }
  ]
}