{
  "type": "FeatureCollection",
  "title": "Tomb of Sampsigeramus",
  "id": "506737959",
  "bbox": [
    36.703829,
    34.727496,
    36.703829,
    34.727496
  ],
  "description": "A hybrid mausoleum of the first century CE located in the necropolis of Emesa. The tomb was destroyed in 1911.",
  "names": [
    "Tomb of Sampsigeramus"
  ],
  "features": [
    {
      "type": "Feature",
      "geometry": {
        "type": "Point",
        "coordinates": [
          36.703829,
          34.727496
        ]
      },
      "properties": {
        "description": "representative point"
      }
    },
    {
      "geometry": {
        "type": "Point",
        "coordinates": [
          36.703829,
          34.727496
        ]
      },
      "id": "geohack-location-of-tomb-of-sampsigeramus",
      "type": "Feature",
      "properties": {
        "description": "Coordinates following GeoHack",
        "location_precision": "precise",
        "title": "GeoHack location of Tomb of Sampsigeramus",
        "link": "http://pleiades.stoa.org/places/506737959/geohack-location-of-tomb-of-sampsigeramus"
      }
    }
  ]
}