{
  "type": "FeatureCollection",
  "title": "Cavo degli Zucchi",
  "id": "507797526",
  "bbox": [
    12.3561748,
    42.2836106,
    12.3561748,
    42.2836106
  ],
  "description": "A Roman necropolis along the Via Amerina.",
  "connectsWith": [
    "690508612"
  ],
  "names": [
    "Cavo degli Zucchi"
  ],
  "features": [
    {
      "type": "Feature",
      "geometry": {
        "type": "Point",
        "coordinates": [
          12.3561748,
          42.2836106
        ]
      },
      "properties": {
        "description": "representative point"
      }
    },
    {
      "geometry": {
        "type": "Point",
        "coordinates": [
          12.3561748,
          42.2836106
        ]
      },
      "id": "osm-location-of-cavo-degli-zucchi",
      "type": "Feature",
      "properties": {
        "description": "Representative location based on OpenStreetMap",
        "location_precision": "precise",
        "title": "OSM location of Cavo degli Zucchi",
        "link": "http://pleiades.stoa.org/places/507797526/osm-location-of-cavo-degli-zucchi"
      }
    }
  ]
}