{
  "type": "FeatureCollection",
  "title": "Palairos",
  "id": "531034",
  "bbox": [
    20.8223609,
    38.8342661,
    20.8317333,
    38.8373458
  ],
  "description": "A fortified ancient Greek city located in southern Epirus.",
  "connectsWith": [
    "231467659"
  ],
  "names": [
    "Palairos"
  ],
  "features": [
    {
      "type": "Feature",
      "geometry": {
        "type": "Point",
        "coordinates": [
          20.8259247688,
          38.8357637355
        ]
      },
      "properties": {
        "description": "representative point"
      }
    },
    {
      "geometry": {
        "type": "Point",
        "coordinates": [
          20.825,
          38.835556
        ]
      },
      "id": "acropolis-of-palairos",
      "type": "Feature",
      "properties": {
        "description": "acropolis of the city; verified in Google Earth 2013",
        "location_precision": "precise",
        "title": "Imagery location of acropolis of Palairos",
        "link": "http://pleiades.stoa.org/places/531034/acropolis-of-palairos"
      }
    },
    {
      "geometry": {
        "type": "LineString",
        "coordinates": [
          [
            20.8225062,
            38.8369948
          ],
          [
            20.8229139,
            38.8370397
          ],
          [
            20.8232331,
            38.8370783
          ],
          [
            20.8235268,
            38.837094
          ],
          [
            20.823622,
            38.8370919
          ],
          [
            20.8236529,
            38.8373458
          ],
          [
            20.824298,
            38.8372914
          ],
          [
            20.8252528,
            38.8371912
          ],
          [
            20.8255626,
            38.837164
          ],
          [
            20.8257732,
            38.8371901
          ],
          [
            20.8265751,
            38.837219
          ],
          [
            20.8269755,
            38.8372047
          ],
          [
            20.8272739,
            38.8372486
          ],
          [
            20.8277419,
            38.8372956
          ],
          [
            20.8278143,
            38.8372152
          ],
          [
            20.8284634,
            38.8368955
          ],
          [
            20.8289462,
            38.8367033
          ],
          [
            20.8290535,
            38.8363356
          ],
          [
            20.8295149,
            38.8359721
          ],
          [
            20.8299354,
            38.8358642
          ],
          [
            20.8303924,
            38.8359979
          ],
          [
            20.8308066,
            38.8356696
          ],
          [
            20.8315402,
            38.8358274
          ],
          [
            20.8317333,
            38.8354921
          ],
          [
            20.8311621,
            38.8353709
          ],
          [
            20.8304115,
            38.8351738
          ],
          [
            20.8289537,
            38.8349943
          ],
          [
            20.8281414,
            38.8350863
          ],
          [
            20.8275761,
            38.8349501
          ],
          [
            20.8268813,
            38.8348979
          ],
          [
            20.8264809,
            38.8346532
          ],
          [
            20.8259281,
            38.8343154
          ],
          [
            20.8257893,
            38.8342661
          ],
          [
            20.8256862,
            38.8343537
          ],
          [
            20.8250193,
            38.8349176
          ],
          [
            20.8249549,
            38.8351367
          ],
          [
            20.8246095,
            38.8354241
          ],
          [
            20.8243711,
            38.8354006
          ],
          [
            20.8239345,
            38.8354341
          ],
          [
            20.8234031,
            38.8353315
          ],
          [
            20.8233176,
            38.8355678
          ],
          [
            20.8232421,
            38.8357591
          ],
          [
            20.8227114,
            38.8360951
          ],
          [
            20.8225411,
            38.8363142
          ],
          [
            20.8225309,
            38.8364914
          ],
          [
            20.822513,
            38.8366897
          ],
          [
            20.8225405,
            38.8368188
          ],
          [
            20.8223799,
            38.8368112
          ],
          [
            20.8223609,
            38.8369275
          ],
          [
            20.8225176,
            38.836941
          ],
          [
            20.8225062,
            38.8369948
          ]
        ]
      },
      "id": "osm-location-iiii-i-i-i-i-i-i-i1ii-i-ii-iiii",
      "type": "Feature",
      "properties": {
        "description": "Location based on OpenStreetMap. Dates after BAtlas.",
        "location_precision": "precise",
        "title": "OSM Location: Αρχαία Πάλαιρος-Καστρο Κεχροπούλας",
        "link": "http://pleiades.stoa.org/places/531034/osm-location-iiii-i-i-i-i-i-i-i1ii-i-ii-iiii"
      }
    }
  ]
}