{
  "type": "FeatureCollection",
  "title": "Ichnai/Achnai",
  "id": "543730",
  "bbox": [
    38.9393377,
    35.899671,
    39.0881594,
    36.6703534
  ],
  "description": "An ancient place, cited: BAtlas 55 unlocated Ichnai/Achnai",
  "connectsWith": [
    "658473968",
    "874312",
    "668318"
  ],
  "names": [
    "Ichnai",
    "Achnai"
  ],
  "features": [
    {
      "type": "Feature",
      "geometry": {
        "type": "Point",
        "coordinates": [
          39.0336078111,
          36.2222053342
        ]
      },
      "properties": {
        "description": "representative point"
      }
    },
    {
      "geometry": null,
      "id": "batlas-location",
      "type": "Feature",
      "properties": {
        "description": null,
        "location_precision": "unlocated",
        "title": "Barrington Atlas location",
        "link": "http://pleiades.stoa.org/places/543730/batlas-location"
      }
    }
  ]
}