{
  "type": "FeatureCollection",
  "title": "Catacomb of Apronianus",
  "id": "549764183",
  "bbox": [
    12.516186,
    41.872658,
    12.516186,
    41.872658
  ],
  "description": "Antonio Bosio discovered the paleochristian Catacomb of Apronianus in 1596. It is located two miles from the Porta Latina.",
  "connectsWith": [
    "423025",
    "93042695"
  ],
  "names": [
    "Catacomb of Aproniano"
  ],
  "features": [
    {
      "type": "Feature",
      "geometry": {
        "type": "Point",
        "coordinates": [
          12.516186,
          41.872658
        ]
      },
      "properties": {
        "description": "representative point"
      }
    },
    {
      "geometry": {
        "type": "Point",
        "coordinates": [
          12.516186,
          41.872658
        ]
      },
      "id": "vici-org-location-of-catacomba-di-aproniano",
      "type": "Feature",
      "properties": {
        "description": "Coordinates following vici.org",
        "location_precision": "precise",
        "title": "vici.org location of Catacomba di Aproniano",
        "link": "http://pleiades.stoa.org/places/549764183/vici-org-location-of-catacomba-di-aproniano"
      }
    }
  ]
}