{
  "type": "FeatureCollection",
  "title": "Platanista grove",
  "id": "552653587",
  "bbox": [
    22.4214422,
    37.07333,
    22.4356398,
    37.0837039
  ],
  "description": "A grove of plane trees near Sparta was a place of sacred competition.",
  "connectsWith": [
    "570685"
  ],
  "names": [
    "Platanistas"
  ],
  "features": [
    {
      "type": "Feature",
      "geometry": {
        "type": "Point",
        "coordinates": [
          22.42972,
          37.07333
        ]
      },
      "properties": {
        "description": "representative point"
      }
    }
  ]
}