{
  "type": "FeatureCollection",
  "title": "Monument of Nikias",
  "id": "559880977",
  "bbox": [
    23.7269591,
    37.9702386,
    23.7269591,
    37.9702386
  ],
  "description": "The Choregic monument of Nikias dates ca. 320/19 BCE.",
  "connectsWith": [
    "638356144"
  ],
  "names": [
    "Monument of Nikias"
  ],
  "features": [
    {
      "type": "Feature",
      "geometry": {
        "type": "Point",
        "coordinates": [
          23.7269591,
          37.9702386
        ]
      },
      "properties": {
        "description": "representative point"
      }
    },
    {
      "geometry": {
        "type": "Point",
        "coordinates": [
          23.7269591,
          37.9702386
        ]
      },
      "id": "osm-location-of-choregic-monument-of-nikias",
      "type": "Feature",
      "properties": {
        "description": "Representative location based on OpenStreetMap",
        "location_precision": "precise",
        "title": "OSM location of Choregic Monument of Nikias",
        "link": "http://pleiades.stoa.org/places/559880977/osm-location-of-choregic-monument-of-nikias"
      }
    }
  ]
}