{
  "type": "FeatureCollection",
  "title": "Arch of Trajan at Dura-Europos",
  "id": "56308089",
  "bbox": [
    40.71136,
    34.754249,
    40.71136,
    34.754249
  ],
  "description": "The Arch of Trajan at Dura-Europos is a triple bay arch located outside walls of Dura-Europos ca. 1.7 km NW of the Palmyrene Gate. An inscription records the dedication to Trajan by the Legio III Cyrenaica and was duplicated on each side of the arch.",
  "connectsWith": [
    "893990"
  ],
  "names": [
    "Arch of Trajan at Dura-Europos",
    "Qaṣr Umm Isbaʿ",
    "Umm Isba"
  ],
  "features": [
    {
      "type": "Feature",
      "geometry": {
        "type": "Point",
        "coordinates": [
          40.71136,
          34.754249
        ]
      },
      "properties": {
        "description": "representative point"
      }
    },
    {
      "geometry": {
        "type": "Point",
        "coordinates": [
          40.71136,
          34.754249
        ]
      },
      "id": "idea-attested-location-wikidata",
      "type": "Feature",
      "properties": {
        "description": "Honorific arch coordinates mapped by the International [Digital] Dura-Europos Archive (IDEA) and contributed to Wikidata. Based upon a georectified map from figure 23.3 in James, Simon. 2015. “Of Colossal Camps and a New Roman Battlefield: Remote Sensing, Archival Archaeology and the ‘Conflict Landscape’ of Dura-Europos, Syria.” In Understanding Roman Frontiers: A Celebration for Professor Bill Hanson, edited by David J. Breeze. John Donald. https://hdl.handle.net/2381/35974.",
        "location_precision": "precise",
        "title": "IDEA attested location (Wikidata)",
        "link": "http://pleiades.stoa.org/places/56308089/idea-attested-location-wikidata"
      }
    }
  ]
}