{
  "type": "FeatureCollection",
  "title": "Melos (island)",
  "id": "570475",
  "bbox": [
    24.341834,
    36.671508,
    24.539147,
    36.766179
  ],
  "description": "Melos is a volcanic island in the Cyclades and in prehistoric times served as an important source of obsidian in the Aegean Sea. Substantial remains of Bronze Age and Greco-Roman civilizations have been excavated on the island.",
  "connectsWith": [
    "560221"
  ],
  "names": [
    "Melos",
    "Melos",
    "Melos"
  ],
  "features": [
    {
      "type": "Feature",
      "geometry": {
        "type": "Point",
        "coordinates": [
          24.4944503286,
          36.7337564143
        ]
      },
      "properties": {
        "description": "representative point"
      }
    }
  ]
}