{
  "type": "FeatureCollection",
  "title": "Olympia",
  "id": "570531",
  "bbox": [
    21.6276116,
    37.6359824,
    21.6351747,
    37.6404846
  ],
  "description": "Ancient sanctuary of Zeus and home of the ancient Olympic games.",
  "connectsWith": [
    "981502"
  ],
  "names": [
    "Olympia",
    "Olympia",
    "Olympia"
  ],
  "features": [
    {
      "type": "Feature",
      "geometry": {
        "type": "Point",
        "coordinates": [
          21.6308143979,
          37.6386835017
        ]
      },
      "properties": {
        "description": "representative point"
      }
    },
    {
      "geometry": {
        "type": "LineString",
        "coordinates": [
          [
            21.6340495,
            37.6402566
          ],
          [
            21.6346925,
            37.6403179
          ],
          [
            21.6348347,
            37.6402351
          ],
          [
            21.63495,
            37.6399675
          ],
          [
            21.6351747,
            37.6395211
          ],
          [
            21.6350627,
            37.6392186
          ],
          [
            21.6344261,
            37.6388124
          ],
          [
            21.6338824,
            37.6385888
          ],
          [
            21.6333535,
            37.6383817
          ],
          [
            21.6331869,
            37.6381189
          ],
          [
            21.6330938,
            37.6379721
          ],
          [
            21.6326876,
            37.6376856
          ],
          [
            21.6323518,
            37.6374197
          ],
          [
            21.6310225,
            37.636659
          ],
          [
            21.6307429,
            37.6365016
          ],
          [
            21.6303271,
            37.6361965
          ],
          [
            21.6293399,
            37.6360668
          ],
          [
            21.6289505,
            37.6359824
          ],
          [
            21.6286317,
            37.6360105
          ],
          [
            21.6284132,
            37.636628
          ],
          [
            21.6281415,
            37.6373537
          ],
          [
            21.6278919,
            37.6373531
          ],
          [
            21.6278015,
            37.6377631
          ],
          [
            21.6277801,
            37.6379968
          ],
          [
            21.627783,
            37.6380058
          ],
          [
            21.6279514,
            37.638528
          ],
          [
            21.6279935,
            37.6391107
          ],
          [
            21.6279532,
            37.6396509
          ],
          [
            21.6277208,
            37.6399407
          ],
          [
            21.6276116,
            37.6403874
          ],
          [
            21.6280365,
            37.6404313
          ],
          [
            21.6280617,
            37.6403096
          ],
          [
            21.6279723,
            37.6402903
          ],
          [
            21.6279884,
            37.6401491
          ],
          [
            21.6281403,
            37.6401637
          ],
          [
            21.6282392,
            37.6401841
          ],
          [
            21.6282272,
            37.6403243
          ],
          [
            21.6282217,
            37.6404177
          ],
          [
            21.6282822,
            37.6404496
          ],
          [
            21.6287011,
            37.6404846
          ],
          [
            21.6288492,
            37.640283
          ],
          [
            21.6289105,
            37.6400806
          ],
          [
            21.6289783,
            37.6400746
          ],
          [
            21.629047,
            37.6400685
          ],
          [
            21.6290926,
            37.6401073
          ],
          [
            21.6291925,
            37.6403636
          ],
          [
            21.6295717,
            37.6401055
          ],
          [
            21.6301194,
            37.6396138
          ],
          [
            21.6304211,
            37.6394003
          ],
          [
            21.6305907,
            37.6393312
          ],
          [
            21.6308848,
            37.6392394
          ],
          [
            21.6310016,
            37.6392127
          ],
          [
            21.6311828,
            37.6392051
          ],
          [
            21.6315528,
            37.6392552
          ],
          [
            21.6318821,
            37.6393821
          ],
          [
            21.6324212,
            37.6396405
          ],
          [
            21.6326879,
            37.6397993
          ],
          [
            21.6331905,
            37.639981
          ],
          [
            21.6334978,
            37.6401196
          ],
          [
            21.6340495,
            37.6402566
          ]
        ]
      },
      "id": "osm-location-of-olympia",
      "type": "Feature",
      "properties": {
        "description": "Representative location based on an OpenStreetMap way outlining the archaeological area.",
        "location_precision": "precise",
        "title": "OSM location of Olympia",
        "link": "http://pleiades.stoa.org/places/570531/osm-location-of-olympia"
      }
    },
    {
      "geometry": {
        "type": "LineString",
        "coordinates": [
          [
            21.6340495,
            37.6402566
          ],
          [
            21.6346925,
            37.6403179
          ],
          [
            21.6348347,
            37.6402351
          ],
          [
            21.63495,
            37.6399675
          ],
          [
            21.6351747,
            37.6395211
          ],
          [
            21.6350627,
            37.6392186
          ],
          [
            21.6344261,
            37.6388124
          ],
          [
            21.6338824,
            37.6385888
          ],
          [
            21.6333535,
            37.6383817
          ],
          [
            21.6331869,
            37.6381189
          ],
          [
            21.6330938,
            37.6379721
          ],
          [
            21.6326876,
            37.6376856
          ],
          [
            21.6323518,
            37.6374197
          ],
          [
            21.6310225,
            37.636659
          ],
          [
            21.6307429,
            37.6365016
          ],
          [
            21.6303271,
            37.6361965
          ],
          [
            21.6293399,
            37.6360668
          ],
          [
            21.6289505,
            37.6359824
          ],
          [
            21.6286317,
            37.6360105
          ],
          [
            21.6284132,
            37.636628
          ],
          [
            21.6281415,
            37.6373537
          ],
          [
            21.6278919,
            37.6373531
          ],
          [
            21.6278015,
            37.6377631
          ],
          [
            21.6277801,
            37.6379968
          ],
          [
            21.627783,
            37.6380058
          ],
          [
            21.6279514,
            37.638528
          ],
          [
            21.6279935,
            37.6391107
          ],
          [
            21.6279532,
            37.6396509
          ],
          [
            21.6277208,
            37.6399407
          ],
          [
            21.6276116,
            37.6403874
          ],
          [
            21.6280365,
            37.6404313
          ],
          [
            21.6280617,
            37.6403096
          ],
          [
            21.6279723,
            37.6402903
          ],
          [
            21.6279884,
            37.6401491
          ],
          [
            21.6281403,
            37.6401637
          ],
          [
            21.6282392,
            37.6401841
          ],
          [
            21.6282272,
            37.6403243
          ],
          [
            21.6282217,
            37.6404177
          ],
          [
            21.6282822,
            37.6404496
          ],
          [
            21.6287011,
            37.6404846
          ],
          [
            21.6288492,
            37.640283
          ],
          [
            21.6289105,
            37.6400806
          ],
          [
            21.6289783,
            37.6400746
          ],
          [
            21.629047,
            37.6400685
          ],
          [
            21.6290926,
            37.6401073
          ],
          [
            21.6291925,
            37.6403636
          ],
          [
            21.6295717,
            37.6401055
          ],
          [
            21.6301194,
            37.6396138
          ],
          [
            21.6304211,
            37.6394003
          ],
          [
            21.6305907,
            37.6393312
          ],
          [
            21.6308848,
            37.6392394
          ],
          [
            21.6310016,
            37.6392127
          ],
          [
            21.6311828,
            37.6392051
          ],
          [
            21.6315528,
            37.6392552
          ],
          [
            21.6318821,
            37.6393821
          ],
          [
            21.6324212,
            37.6396405
          ],
          [
            21.6326879,
            37.6397993
          ],
          [
            21.6331905,
            37.639981
          ],
          [
            21.6334978,
            37.6401196
          ],
          [
            21.6340495,
            37.6402566
          ]
        ]
      },
      "id": "osm-location-of-olympia-1",
      "type": "Feature",
      "properties": {
        "description": "Representative location based on OpenStreetMap",
        "location_precision": "precise",
        "title": "OSM location of Olympia",
        "link": "http://pleiades.stoa.org/places/570531/osm-location-of-olympia-1"
      }
    }
  ]
}