{
  "type": "FeatureCollection",
  "title": "Athenae",
  "id": "579885",
  "bbox": [
    23.6172739,
    37.937222,
    23.7441,
    37.9943588
  ],
  "description": "A major Greek city-state and the principal city of Attika. Modern Athens in Greece.",
  "connectsWith": [
    "579888",
    "522406511",
    "981502"
  ],
  "names": [
    "Athenae",
    "Athens",
    "Athina",
    "Athēnai",
    "Athen",
    "Athenas",
    "Ays̱ina",
    "Ays̱inās̱",
    "Atina"
  ],
  "features": [
    {
      "type": "Feature",
      "geometry": {
        "type": "Point",
        "coordinates": [
          23.7239547968,
          37.9716474729
        ]
      },
      "properties": {
        "description": "representative point"
      }
    }
  ]
}