{
  "type": "FeatureCollection",
  "title": "Soros",
  "id": "580106",
  "bbox": [
    23.978343,
    38.1179246,
    23.9783453,
    38.117935
  ],
  "description": "The tumulus (burial mound) of the Athenian dead at Marathon.",
  "connectsWith": [
    "580022"
  ],
  "names": [
    "Soros",
    "taphos Athenaion"
  ],
  "features": [
    {
      "type": "Feature",
      "geometry": {
        "type": "Point",
        "coordinates": [
          23.97834415,
          38.1179298
        ]
      },
      "properties": {
        "description": "representative point"
      }
    },
    {
      "geometry": {
        "type": "Point",
        "coordinates": [
          23.9783453,
          38.1179246
        ]
      },
      "id": "osm-location-of-tomb-of-the-athenians",
      "type": "Feature",
      "properties": {
        "description": "Representative location based on OpenStreetMap",
        "location_precision": "precise",
        "title": "OSM location of Tomb of the Athenians",
        "link": "http://pleiades.stoa.org/places/580106/osm-location-of-tomb-of-the-athenians"
      }
    },
    {
      "geometry": {
        "type": "Point",
        "coordinates": [
          23.978343,
          38.117935
        ]
      },
      "id": "imagery-location-of-the-tumulus",
      "type": "Feature",
      "properties": {
        "description": "Verified in Google Earth.",
        "location_precision": "precise",
        "title": "Imagery Location of the Tumulus",
        "link": "http://pleiades.stoa.org/places/580106/imagery-location-of-the-tumulus"
      }
    }
  ]
}