{
  "type": "FeatureCollection",
  "title": "Basilica di Santa Restituta",
  "id": "580481246",
  "bbox": [
    14.2591461,
    40.8526516,
    14.2596101,
    40.8530893
  ],
  "description": "The Basilica of Santa Restituta is a Christian church in Naples, Italy. It is considered the oldest Christian basilica in the city. Tradition assigns its foundation to Constantine I, and the Liber Pontificalis identifies him as patron in a passage from the life of Pope Sylvester I. The Christian church may have occupied a location that was formerly home to a temple of Apollo.",
  "names": [
    "Basilica di Santa Restituta"
  ],
  "features": [
    {
      "type": "Feature",
      "geometry": {
        "type": "Point",
        "coordinates": [
          14.2593526831,
          40.8528751083
        ]
      },
      "properties": {
        "description": "representative point"
      }
    },
    {
      "geometry": {
        "type": "LineString",
        "coordinates": [
          [
            14.259337500000001,
            40.8527158
          ],
          [
            14.2592722,
            40.8528245
          ],
          [
            14.2591917,
            40.852799
          ],
          [
            14.259162,
            40.852858
          ],
          [
            14.2591461,
            40.8528895
          ],
          [
            14.2592159,
            40.8529584
          ],
          [
            14.2591649,
            40.8530741
          ],
          [
            14.2592032,
            40.8530893
          ],
          [
            14.259245,
            40.8529888
          ],
          [
            14.2593508,
            40.8530219
          ],
          [
            14.2594312,
            40.8530471
          ],
          [
            14.2594642,
            40.8529868
          ],
          [
            14.2596101,
            40.8527296
          ],
          [
            14.2593764,
            40.8526516
          ],
          [
            14.259337500000001,
            40.8527158
          ]
        ]
      },
      "id": "osm-location-of-basilica-di-santa-restituta",
      "type": "Feature",
      "properties": {
        "description": "Representative location based on OpenStreetMap",
        "location_precision": "precise",
        "title": "OSM location of Basilica di Santa Restituta",
        "link": "http://pleiades.stoa.org/places/580481246/osm-location-of-basilica-di-santa-restituta"
      }
    }
  ]
}