{
  "type": "FeatureCollection",
  "title": "Hospitalet Vell",
  "id": "580555073",
  "bbox": [
    3.2606273,
    39.4806529,
    3.263495,
    39.4833486
  ],
  "description": "A prehistoric settlement of Mallorca with two phases: a Pre-Talayotic period (ca. 1700/1600 to 1200/1100 BCE) and a Talayotic phase (ca. 1100 to 123 BCE). There is also some evidence of Punic influence.",
  "connectsWith": [
    "632227173"
  ],
  "names": [
    "Talayotic town of l'Hospitalet Vell"
  ],
  "features": [
    {
      "type": "Feature",
      "geometry": {
        "type": "Point",
        "coordinates": [
          3.26221510149,
          39.4820782484
        ]
      },
      "properties": {
        "description": "representative point"
      }
    },
    {
      "geometry": {
        "type": "LineString",
        "coordinates": [
          [
            3.2630138,
            39.4833486
          ],
          [
            3.2623593,
            39.4828339
          ],
          [
            3.263495,
            39.4816843
          ],
          [
            3.2630157,
            39.4810216
          ],
          [
            3.2624404,
            39.4806529
          ],
          [
            3.2624103,
            39.4806752
          ],
          [
            3.2621643,
            39.4808579
          ],
          [
            3.2619479,
            39.4810186
          ],
          [
            3.2614168,
            39.4814305
          ],
          [
            3.2606273,
            39.4822014
          ],
          [
            3.2627891,
            39.4832924
          ],
          [
            3.2628974,
            39.483347
          ],
          [
            3.2629094,
            39.483329
          ],
          [
            3.2630138,
            39.4833486
          ]
        ]
      },
      "id": "osm-location-of-poblat-de-shospitalet-vell",
      "type": "Feature",
      "properties": {
        "description": "Representative location based on OpenStreetMap",
        "location_precision": "precise",
        "title": "OSM location of poblat de s'Hospitalet Vell",
        "link": "http://pleiades.stoa.org/places/580555073/osm-location-of-poblat-de-shospitalet-vell"
      }
    }
  ]
}