{
  "type": "FeatureCollection",
  "title": "Untitled",
  "id": "582108",
  "bbox": [
    23.9361287,
    37.6437048,
    23.965343,
    37.6576462
  ],
  "description": "An ancient place, cited: BAtlas 59 C4 unnamed fort (on Patroklou Charax)",
  "connectsWith": [
    "580060"
  ],
  "names": [
    "Patroklou Charax"
  ],
  "features": [
    {
      "type": "Feature",
      "geometry": {
        "type": "Point",
        "coordinates": [
          23.9504404904,
          37.6503033898
        ]
      },
      "properties": {
        "description": "representative point"
      }
    },
    {
      "geometry": {
        "type": "Polygon",
        "coordinates": [
          [
            [
              23.75,
              37.5
            ],
            [
              23.75,
              37.75
            ],
            [
              24.0,
              37.75
            ],
            [
              24.0,
              37.5
            ],
            [
              23.75,
              37.5
            ]
          ]
        ]
      },
      "id": "batlas-location",
      "type": "Feature",
      "properties": {
        "description": null,
        "location_precision": "rough",
        "title": "Barrington Atlas location",
        "link": "http://pleiades.stoa.org/places/582108/batlas-location"
      }
    }
  ]
}