{
  "type": "FeatureCollection",
  "title": "Blenheim Roman villa",
  "id": "584074927",
  "bbox": [
    -1.3389195,
    51.842005,
    -1.3389195,
    51.842005
  ],
  "description": "A Roman villa partially excavated in 1985 with pottery dating from the third and fourth centuries CE near Woodstock, Oxfordshire, United Kingdom.",
  "features": [
    {
      "type": "Feature",
      "geometry": {
        "type": "Point",
        "coordinates": [
          -1.3389195,
          51.842005
        ]
      },
      "properties": {
        "description": "representative point"
      }
    },
    {
      "geometry": {
        "type": "Point",
        "coordinates": [
          -1.3389195,
          51.842005
        ]
      },
      "id": "wikidata-location-drayton-roman-fort",
      "type": "Feature",
      "properties": {
        "description": null,
        "location_precision": "precise",
        "title": "Wikidata Location: Blenheim villa",
        "link": "http://pleiades.stoa.org/places/584074927/wikidata-location-drayton-roman-fort"
      }
    }
  ]
}