{
  "type": "FeatureCollection",
  "title": "Santa Maria Nova",
  "id": "587082457",
  "bbox": [
    12.5450065,
    41.8287453,
    12.5485351,
    41.83099
  ],
  "description": "A multi-period site with medieval and modern remains atop Roman levels, including a medieval farmhouse built atop a Roman cistern. Excavations revealed multi-phase evidence, including a bath building decorated with mosaics. The structures may have been related to the nearby Villa dei Quintilli.",
  "connectsWith": [
    "356966898",
    "423019"
  ],
  "features": [
    {
      "type": "Feature",
      "geometry": {
        "type": "Point",
        "coordinates": [
          12.5468170285,
          41.8299641669
        ]
      },
      "properties": {
        "description": "representative point"
      }
    },
    {
      "geometry": {
        "type": "MultiLineString",
        "coordinates": [
          [
            [
              12.5470211,
              41.8287633
            ],
            [
              12.5469848,
              41.8287453
            ],
            [
              12.5464678,
              41.8292097
            ],
            [
              12.5466179,
              41.8293012
            ],
            [
              12.5464817,
              41.8294261
            ],
            [
              12.5463295,
              41.8293304
            ],
            [
              12.5460707,
              41.8295196
            ],
            [
              12.5450065,
              41.8304772
            ]
          ],
          [
            [
              12.548034,
              41.8301936
            ],
            [
              12.5474368,
              41.83099
            ],
            [
              12.546513,
              41.830741
            ],
            [
              12.5460872,
              41.8308108
            ],
            [
              12.5458178,
              41.8306943
            ],
            [
              12.5456342,
              41.8306452
            ],
            [
              12.5450065,
              41.8304772
            ]
          ],
          [
            [
              12.5470211,
              41.8287633
            ],
            [
              12.5477483,
              41.8291784
            ],
            [
              12.5481316,
              41.8293646
            ],
            [
              12.548472,
              41.8295444
            ],
            [
              12.5485351,
              41.8297104
            ],
            [
              12.548034,
              41.8301936
            ]
          ]
        ]
      },
      "id": "osm-location-of-santa-maria-nova",
      "type": "Feature",
      "properties": {
        "description": "Representative location based on OpenStreetMap.",
        "location_precision": "precise",
        "title": "OSM location of Santa Maria Nova",
        "link": "http://pleiades.stoa.org/places/587082457/osm-location-of-santa-maria-nova"
      }
    }
  ]
}