{
  "type": "FeatureCollection",
  "title": "Eridanos",
  "id": "591471666",
  "bbox": [
    23.7175261,
    37.9761166,
    23.7260188,
    37.9787091
  ],
  "description": "A stream that flowed from the Lykabettos, through the Agora to the Kerameikos.",
  "names": [
    "Eridanos"
  ],
  "features": [
    {
      "type": "Feature",
      "geometry": {
        "type": "Point",
        "coordinates": [
          23.7220317521,
          37.9772583556
        ]
      },
      "properties": {
        "description": "representative point"
      }
    },
    {
      "geometry": {
        "type": "LineString",
        "coordinates": [
          [
            23.7186844,
            37.9780893
          ],
          [
            23.7186584,
            37.9781013
          ],
          [
            23.718569,
            37.97814
          ],
          [
            23.7184661,
            37.9781822
          ],
          [
            23.7182876,
            37.9782638
          ],
          [
            23.7178443,
            37.9784768
          ],
          [
            23.717725,
            37.978545
          ],
          [
            23.7176555,
            37.9785967
          ],
          [
            23.7175765,
            37.978661
          ],
          [
            23.7175261,
            37.9787091
          ]
        ]
      },
      "id": "osm-location-of-iii1ii-i1-2ii",
      "type": "Feature",
      "properties": {
        "description": "Representative location based on OpenStreetMap.",
        "location_precision": "precise",
        "title": "OSM location of Ηριδανός",
        "link": "http://pleiades.stoa.org/places/591471666/osm-location-of-iii1ii-i1-2ii"
      }
    },
    {
      "geometry": {
        "type": "LineString",
        "coordinates": [
          [
            23.7259318,
            37.9761338
          ],
          [
            23.7259813,
            37.9761782
          ],
          [
            23.7260188,
            37.9761618
          ],
          [
            23.7259912,
            37.976126
          ],
          [
            23.7259506,
            37.9761166
          ],
          [
            23.7259318,
            37.9761338
          ]
        ]
      },
      "id": "osm-location-of-vaulted-bed-of-eridanos-river",
      "type": "Feature",
      "properties": {
        "description": "Location based on OpenStreetMap",
        "location_precision": "precise",
        "title": "OSM location of Vaulted bed of Eridanos river",
        "link": "http://pleiades.stoa.org/places/591471666/osm-location-of-vaulted-bed-of-eridanos-river"
      }
    }
  ]
}