{
  "type": "FeatureCollection",
  "title": "Fonte do Ídolo",
  "id": "59492268",
  "bbox": [
    -8.4219466,
    41.5484115,
    -8.4217451,
    41.5487066
  ],
  "description": "A rock-cut cult place and spring dedicated in an inscription to the god Tongoenabiagus by one Celicus Fronto.",
  "connectsWith": [
    "236377"
  ],
  "names": [
    "Fonte do Ídolo",
    "Fountain of the Idol"
  ],
  "features": [
    {
      "type": "Feature",
      "geometry": {
        "type": "Point",
        "coordinates": [
          -8.42184835948,
          41.5485513493
        ]
      },
      "properties": {
        "description": "representative point"
      }
    },
    {
      "geometry": {
        "type": "LineString",
        "coordinates": [
          [
            -8.4219466,
            41.5486622
          ],
          [
            -8.4219172,
            41.5486831
          ],
          [
            -8.4218843,
            41.5487066
          ],
          [
            -8.4218261,
            41.5485902
          ],
          [
            -8.4217451,
            41.5484261
          ],
          [
            -8.4218253,
            41.5484115
          ],
          [
            -8.4219024,
            41.5485699
          ],
          [
            -8.4219355,
            41.5486348
          ],
          [
            -8.4219466,
            41.5486622
          ]
        ]
      },
      "id": "osm-location",
      "type": "Feature",
      "properties": {
        "description": "Location based on OpenStreetMap",
        "location_precision": "precise",
        "title": "OSM Location: Fonte do Ídolo",
        "link": "http://pleiades.stoa.org/places/59492268/osm-location"
      }
    }
  ]
}