{
  "type": "FeatureCollection",
  "title": "Emporion",
  "id": "599611",
  "bbox": [
    25.444006,
    36.357296,
    25.444006,
    36.357296
  ],
  "description": "Hellenistic and Roman catacomb and settlement complex located on southern Thera. The ancient name(s) are unknown. ",
  "connectsWith": [
    "599973"
  ],
  "names": [
    "Emporion"
  ],
  "features": [
    {
      "type": "Feature",
      "geometry": {
        "type": "Point",
        "coordinates": [
          25.444006,
          36.357296
        ]
      },
      "properties": {
        "description": "representative point"
      }
    },
    {
      "geometry": {
        "type": "Point",
        "coordinates": [
          25.444006,
          36.357296
        ]
      },
      "id": "darmc-location-23455",
      "type": "Feature",
      "properties": {
        "description": "Point location",
        "location_precision": "precise",
        "title": "DARMC location 23455",
        "link": "http://pleiades.stoa.org/places/599611/darmc-location-23455"
      }
    }
  ]
}