{
  "type": "FeatureCollection",
  "title": "Hygassos",
  "id": "599657",
  "bbox": [
    28.120727,
    36.739573,
    28.120727,
    36.739573
  ],
  "description": "An ancient place, cited: BAtlas 61 G4 Hygassos",
  "names": [
    "Hygassos"
  ],
  "features": [
    {
      "type": "Feature",
      "geometry": {
        "type": "Point",
        "coordinates": [
          28.120727,
          36.739573
        ]
      },
      "properties": {
        "description": "representative point"
      }
    },
    {
      "geometry": {
        "type": "Point",
        "coordinates": [
          28.120727,
          36.739573
        ]
      },
      "id": "darmc-location-12817",
      "type": "Feature",
      "properties": {
        "description": "1:500,000 scale representative point location digitized from the Barrington Atlas of the Greek and Roman World by the Digital Atlas of Roman and Medieval Civilizations project at Harvard University.",
        "location_precision": "precise",
        "title": "DARMC location 12817",
        "link": "http://pleiades.stoa.org/places/599657/darmc-location-12817"
      }
    }
  ]
}