{
  "type": "FeatureCollection",
  "title": "Louphourdon",
  "id": "616157799",
  "description": "An unlocated \"polis\" mentioned by Ptolemy. BAtlDir tentatively offers that it might fall within the northeast part of Map 12, i.e., somewhere in the northern Czech Republic or contiguous eastern Germany or western Poland.",
  "names": [
    "Louphourdon"
  ],
  "features": [
    {
      "type": "Feature",
      "geometry": null,
      "properties": {
        "description": "representative point"
      }
    }
  ]
}