{
  "type": "FeatureCollection",
  "title": "Ġgantija",
  "id": "62131047",
  "bbox": [
    14.2684909,
    36.0468124,
    14.2696415,
    36.05
  ],
  "description": "Megalithic temple on the island of Gozo, named a UNESCO World Heritage Site in 1980.",
  "connectsWith": [
    "462213"
  ],
  "features": [
    {
      "type": "Feature",
      "geometry": {
        "type": "Point",
        "coordinates": [
          14.2689771938,
          36.0486148285
        ]
      },
      "properties": {
        "description": "representative point"
      }
    },
    {
      "geometry": {
        "type": "Point",
        "coordinates": [
          14.268889,
          36.05
        ]
      },
      "id": "ggantija-temples",
      "type": "Feature",
      "properties": {
        "description": "Neolithic, megalithic temple complex on the Mediterranean island of Gozo dating ca. 3600-2500 BC",
        "location_precision": "precise",
        "title": "Ġgantija Temples",
        "link": "http://pleiades.stoa.org/places/62131047/ggantija-temples"
      }
    },
    {
      "geometry": {
        "type": "LineString",
        "coordinates": [
          [
            14.2684909,
            36.0473015
          ],
          [
            14.2686465,
            36.0469166
          ],
          [
            14.2688293,
            36.0468804
          ],
          [
            14.2691077,
            36.0468124
          ],
          [
            14.2691484,
            36.0468465
          ],
          [
            14.2693316,
            36.0469178
          ],
          [
            14.2694738,
            36.0470098
          ],
          [
            14.2694982,
            36.047041
          ],
          [
            14.2695663,
            36.04711
          ],
          [
            14.2695775,
            36.0471864
          ],
          [
            14.2696308,
            36.0472676
          ],
          [
            14.2696029,
            36.0472793
          ],
          [
            14.2696415,
            36.0473623
          ],
          [
            14.2696025,
            36.0473703
          ],
          [
            14.2695663,
            36.047401
          ],
          [
            14.2690295,
            36.0476664
          ],
          [
            14.2689596,
            36.0476657
          ],
          [
            14.2685311,
            36.0473326
          ],
          [
            14.2684909,
            36.0473015
          ]
        ]
      },
      "id": "osm-location-a-gantija-temples",
      "type": "Feature",
      "properties": {
        "description": "Representative location based on OpenStreetMap",
        "location_precision": "precise",
        "title": "OSM location Ġgantija Temples",
        "link": "http://pleiades.stoa.org/places/62131047/osm-location-a-gantija-temples"
      }
    }
  ]
}