{
  "type": "FeatureCollection",
  "title": "Samad al-Shan",
  "id": "650751935",
  "bbox": [
    58.15,
    22.811111,
    58.15,
    22.811111
  ],
  "description": "An Iron Age archaeological site in Oman.",
  "names": [
    "Samad al-Shan"
  ],
  "features": [
    {
      "type": "Feature",
      "geometry": {
        "type": "Point",
        "coordinates": [
          58.15,
          22.811111
        ]
      },
      "properties": {
        "description": "representative point"
      }
    },
    {
      "geometry": {
        "type": "Point",
        "coordinates": [
          58.15,
          22.811111
        ]
      },
      "id": "geohack-location-of-samad-al-shan",
      "type": "Feature",
      "properties": {
        "description": "Coordinates following GeoHack",
        "location_precision": "precise",
        "title": "GeoHack location of Samad al-Shan",
        "link": "http://pleiades.stoa.org/places/650751935/geohack-location-of-samad-al-shan"
      }
    }
  ]
}