{
  "type": "FeatureCollection",
  "title": "Via Berneri columbarium",
  "id": "653874577",
  "bbox": [
    12.585986,
    41.868324,
    12.585986,
    41.868324
  ],
  "description": "The Via Berneri columbarium was discovered in 2021 during utility work. This Roman tomb contained two sarcophagi, one of which carried a Latin inscription.",
  "connectsWith": [
    "423025"
  ],
  "features": [
    {
      "type": "Feature",
      "geometry": {
        "type": "Point",
        "coordinates": [
          12.585986,
          41.868324
        ]
      },
      "properties": {
        "description": "representative point"
      }
    },
    {
      "geometry": {
        "type": "Point",
        "coordinates": [
          12.585986,
          41.868324
        ]
      },
      "id": "vici-org-location-of-colombario-di-via-berneri",
      "type": "Feature",
      "properties": {
        "description": "coordinates following vici.org",
        "location_precision": "precise",
        "title": "vici.org location of Colombario di Via Berneri",
        "link": "http://pleiades.stoa.org/places/653874577/vici-org-location-of-colombario-di-via-berneri"
      }
    }
  ]
}