{
  "type": "FeatureCollection",
  "title": "Platanoi/‘Pictanus’",
  "id": "658573",
  "bbox": [
    36.19513,
    36.488437,
    36.19513,
    36.488437
  ],
  "description": "An ancient place, cited: BAtlas 67 C4 Platanoi/‘Pictanus’",
  "names": [
    "Platanos",
    "Platanoi",
    "Pictanus"
  ],
  "features": [
    {
      "type": "Feature",
      "geometry": {
        "type": "Point",
        "coordinates": [
          36.19513,
          36.488437
        ]
      },
      "properties": {
        "description": "representative point"
      }
    },
    {
      "geometry": {
        "type": "Point",
        "coordinates": [
          36.19513,
          36.488437
        ]
      },
      "id": "darmc-location-3452",
      "type": "Feature",
      "properties": {
        "description": "1:500,000 scale representative point location digitized from the Barrington Atlas of the Greek and Roman World by the Digital Atlas of Roman and Medieval Civilizations project at Harvard University.",
        "location_precision": "precise",
        "title": "DARMC location 3452",
        "link": "http://pleiades.stoa.org/places/658573/darmc-location-3452"
      }
    }
  ]
}