{
  "type": "FeatureCollection",
  "title": "Casinalbo necropolis",
  "id": "669601729",
  "bbox": [
    10.8578234,
    44.593856,
    10.8578234,
    44.593856
  ],
  "description": "A necropolis of the Terramare culture, located in the present-day province of Modena, Italy.",
  "names": [
    "Necropoli di Casinalbo"
  ],
  "features": [
    {
      "type": "Feature",
      "geometry": {
        "type": "Point",
        "coordinates": [
          10.8578234,
          44.593856
        ]
      },
      "properties": {
        "description": "representative point"
      }
    },
    {
      "geometry": {
        "type": "Point",
        "coordinates": [
          10.8578234,
          44.593856
        ]
      },
      "id": "osm-location-of-casinalbo",
      "type": "Feature",
      "properties": {
        "description": "Location based on OpenStreetMap",
        "location_precision": "precise",
        "title": "OSM location of Casinalbo",
        "link": "http://pleiades.stoa.org/places/669601729/osm-location-of-casinalbo"
      }
    }
  ]
}