{
  "type": "FeatureCollection",
  "title": "Capareas",
  "id": "674227",
  "description": "Station in Coelesyria between Chalcis and Ephiphaneia, mentioned in the Antonine Itinerary. An ancient place, cited: BAtlas 68 unlocated Capareas",
  "names": [
    "Capareas"
  ],
  "features": [
    {
      "type": "Feature",
      "geometry": null,
      "properties": {
        "description": "representative point"
      }
    },
    {
      "geometry": null,
      "id": "undetermined",
      "type": "Feature",
      "properties": {
        "description": null,
        "location_precision": "unlocated",
        "title": "Undetermined location",
        "link": "http://pleiades.stoa.org/places/674227/undetermined"
      }
    }
  ]
}