{
  "type": "FeatureCollection",
  "title": "Kadasa",
  "id": "678215",
  "bbox": [
    35.529938,
    33.1101085,
    35.5309562,
    33.11132
  ],
  "description": "A multi-period settlement, with Bronze Age to Roman occupation, most notably the site of a large, Persian and Hellenistic administrative building.",
  "names": [
    "Kadasa",
    "Kydissos",
    "Tel Qedesh"
  ],
  "features": [
    {
      "type": "Feature",
      "geometry": {
        "type": "Point",
        "coordinates": [
          35.5304471,
          33.11071425
        ]
      },
      "properties": {
        "description": "representative point"
      }
    },
    {
      "geometry": {
        "type": "Point",
        "coordinates": [
          35.529938,
          33.11132
        ]
      },
      "id": "darmc-location-20357",
      "type": "Feature",
      "properties": {
        "description": "1:500,000 scale representative point location digitized from the Barrington Atlas of the Greek and Roman World by the Digital Atlas of Roman and Medieval Civilizations project at Harvard University.",
        "location_precision": "precise",
        "title": "DARMC location 20357",
        "link": "http://pleiades.stoa.org/places/678215/darmc-location-20357"
      }
    },
    {
      "geometry": {
        "type": "Point",
        "coordinates": [
          35.5309562,
          33.1101085
        ]
      },
      "id": "tel-kedesh",
      "type": "Feature",
      "properties": {
        "description": "Representative location based on a node derived from OpenStreetMap",
        "location_precision": "precise",
        "title": "OSM location of Centerpoint of Tel Kedesh",
        "link": "http://pleiades.stoa.org/places/678215/tel-kedesh"
      }
    }
  ]
}