{
  "type": "FeatureCollection",
  "title": "Cova des Coloms",
  "id": "686135187",
  "bbox": [
    4.038945,
    39.9329176,
    4.038945,
    39.9329176
  ],
  "description": "The Cova des Coloms is a natural cave located on the island of Menorca that served as a burial site during the Post-Talayotic period (ca. 550–123 BCE).",
  "connectsWith": [
    "572631626"
  ],
  "names": [
    "Cova des Coloms"
  ],
  "features": [
    {
      "type": "Feature",
      "geometry": {
        "type": "Point",
        "coordinates": [
          4.038945,
          39.9329176
        ]
      },
      "properties": {
        "description": "representative point"
      }
    },
    {
      "geometry": {
        "type": "Point",
        "coordinates": [
          4.038945,
          39.9329176
        ]
      },
      "id": "osm-location-of-cova-dels-coloms",
      "type": "Feature",
      "properties": {
        "description": "Location based on OpenStreetMap",
        "location_precision": "precise",
        "title": "OSM location of Cova dels Coloms",
        "link": "http://pleiades.stoa.org/places/686135187/osm-location-of-cova-dels-coloms"
      }
    }
  ]
}