{
  "type": "FeatureCollection",
  "title": "Theater of Balbus",
  "id": "687792644",
  "bbox": [
    12.478375,
    41.8940225,
    12.4796415,
    41.8948326
  ],
  "description": "Cornelius Balbus dedicated a theater in the Campus Martius at Rome ca. 13 BCE.",
  "connectsWith": [
    "423025",
    "936873471"
  ],
  "names": [
    "Theater of Balbus⁠"
  ],
  "features": [
    {
      "type": "Feature",
      "geometry": {
        "type": "Point",
        "coordinates": [
          12.4789278481,
          41.89438291
        ]
      },
      "properties": {
        "description": "representative point"
      }
    }
  ]
}