{
  "type": "FeatureCollection",
  "title": "Tomb of Sarenput II",
  "id": "698148329",
  "bbox": [
    32.8901148,
    24.101666,
    32.890138,
    24.1016871
  ],
  "description": "A tomb at Qubbet el-Hawa, designated QH31, was built for Sarenput II, an Egyptian nomarch of the Twelfth Dynasty.",
  "connectsWith": [
    "979588215"
  ],
  "names": [
    "Tomb of Sarenput II",
    "QH 31"
  ],
  "features": [
    {
      "type": "Feature",
      "geometry": {
        "type": "Point",
        "coordinates": [
          32.8901259442,
          24.1016766904
        ]
      },
      "properties": {
        "description": "representative point"
      }
    },
    {
      "geometry": {
        "type": "LineString",
        "coordinates": [
          [
            32.890138,
            24.1016787
          ],
          [
            32.8901302,
            24.101666
          ],
          [
            32.8901148,
            24.1016742
          ],
          [
            32.8901197,
            24.1016871
          ],
          [
            32.890138,
            24.1016787
          ]
        ]
      },
      "id": "osm-location-of-qh31-sirenput-ii",
      "type": "Feature",
      "properties": {
        "description": "Representative location based on OpenStreetMap",
        "location_precision": "precise",
        "title": "OSM location of QH31 Tomb of Sarenput II",
        "link": "http://pleiades.stoa.org/places/698148329/osm-location-of-qh31-sirenput-ii"
      }
    }
  ]
}