{
  "type": "FeatureCollection",
  "title": "Punta di Zambrone",
  "id": "698575698",
  "bbox": [
    15.971949,
    38.7147988,
    15.971949,
    38.7147988
  ],
  "description": "Excavations at the site of Punta di Zambrone have documented indigenous settlements of the early Iron Age in Calabria.",
  "features": [
    {
      "type": "Feature",
      "geometry": {
        "type": "Point",
        "coordinates": [
          15.971949,
          38.7147988
        ]
      },
      "properties": {
        "description": "representative point"
      }
    },
    {
      "geometry": {
        "type": "Point",
        "coordinates": [
          15.971949,
          38.7147988
        ]
      },
      "id": "osm-location-of-capo-cozzo",
      "type": "Feature",
      "properties": {
        "description": "Location based on OpenStreetMap",
        "location_precision": "precise",
        "title": "OSM location of Capo Cozzo",
        "link": "http://pleiades.stoa.org/places/698575698/osm-location-of-capo-cozzo"
      }
    }
  ]
}