{
  "type": "FeatureCollection",
  "title": "Sepolcro dei Calpurni",
  "id": "705259128",
  "bbox": [
    12.5373251,
    41.8608409,
    12.5374781,
    41.8610101
  ],
  "description": "Sepolcro dei Calpurni is a Roman hypogeum tomb along the Via Latina that dates to the middle of the first century CE.",
  "connectsWith": [
    "426597"
  ],
  "names": [
    "Tomb of the Calpurni"
  ],
  "features": [
    {
      "type": "Feature",
      "geometry": {
        "type": "Point",
        "coordinates": [
          12.5374065011,
          41.8609224995
        ]
      },
      "properties": {
        "description": "representative point"
      }
    },
    {
      "geometry": {
        "type": "LineString",
        "coordinates": [
          [
            12.5374239,
            41.8609115
          ],
          [
            12.5374426,
            41.8609047
          ],
          [
            12.5374012,
            41.8608409
          ],
          [
            12.5373251,
            41.8608683
          ],
          [
            12.5373649,
            41.8609296
          ],
          [
            12.5373801,
            41.8609241
          ],
          [
            12.537436,
            41.8610101
          ],
          [
            12.5374781,
            41.8609949
          ],
          [
            12.5374239,
            41.8609115
          ]
        ]
      },
      "id": "osm-location-of-sepolcro-dei-calpurni",
      "type": "Feature",
      "properties": {
        "description": "Representative location based on OpenStreetMap",
        "location_precision": "precise",
        "title": "OSM location of Sepolcro dei Calpurni",
        "link": "http://pleiades.stoa.org/places/705259128/osm-location-of-sepolcro-dei-calpurni"
      }
    }
  ]
}