{
  "type": "FeatureCollection",
  "title": "Tomb of the Servilii",
  "id": "710307885",
  "bbox": [
    12.5185336,
    41.8544988,
    12.5187383,
    41.8546352
  ],
  "description": "A tomb known as the \"Tomb of the Servilii\" which pre-dates the Mausoleum of Romulus, was incorporated into the porticus surrounding the latter. This tomb dates to the late first century BCE or early first century CE.",
  "names": [
    "Tomb of the Servilii"
  ],
  "features": [
    {
      "type": "Feature",
      "geometry": {
        "type": "Point",
        "coordinates": [
          12.5186376586,
          41.8545668766
        ]
      },
      "properties": {
        "description": "representative point"
      }
    },
    {
      "geometry": {
        "type": "LineString",
        "coordinates": [
          [
            12.5186563,
            41.8544988
          ],
          [
            12.5187383,
            41.8545503
          ],
          [
            12.5186374,
            41.8546352
          ],
          [
            12.5186218,
            41.8546249
          ],
          [
            12.5185336,
            41.8545623
          ],
          [
            12.5186061,
            41.8545656
          ],
          [
            12.5186248,
            41.8545267
          ],
          [
            12.5186563,
            41.8544988
          ]
        ]
      },
      "id": "osm-location-of-tomba-dei-servilii",
      "type": "Feature",
      "properties": {
        "description": "Representative location based on OpenStreetMap",
        "location_precision": "precise",
        "title": "OSM location of Tomba dei Servilii",
        "link": "http://pleiades.stoa.org/places/710307885/osm-location-of-tomba-dei-servilii"
      }
    }
  ]
}