{
  "type": "FeatureCollection",
  "title": "Perseos Skope",
  "id": "727193",
  "bbox": [
    30.410712,
    31.465968,
    30.410712,
    31.465968
  ],
  "description": "An ancient place, cited: BAtlas 74 C2 Perseos Skope",
  "names": [
    "Perseos Skope",
    "Perseos Skope"
  ],
  "features": [
    {
      "type": "Feature",
      "geometry": {
        "type": "Point",
        "coordinates": [
          30.410712,
          31.465968
        ]
      },
      "properties": {
        "description": "representative point"
      }
    },
    {
      "geometry": {
        "type": "Point",
        "coordinates": [
          30.410712,
          31.465968
        ]
      },
      "id": "darmc-location-9695",
      "type": "Feature",
      "properties": {
        "description": "1:500,000 scale representative point location digitized from the Barrington Atlas of the Greek and Roman World by the Digital Atlas of Roman and Medieval Civilizations project at Harvard University.",
        "location_precision": "precise",
        "title": "DARMC location 9695",
        "link": "http://pleiades.stoa.org/places/727193/darmc-location-9695"
      }
    }
  ]
}