{
  "type": "FeatureCollection",
  "title": "Thou",
  "id": "730163",
  "description": "Stop in Egypt along two routes of the Antonine Itinerary, one leading to Pelusium via Tacasarta, the other leading to Serapeum via Heroonpolis. Located near the entrance of the Wadi Tumilat, between modern Zagazig and modern Ismailia. An ancient place, cited: BAtlas 74 unlocated Thou.",
  "names": [
    "Thou",
    "Thou",
    "Tell el-Shuqafiya"
  ],
  "features": [
    {
      "type": "Feature",
      "geometry": null,
      "properties": {
        "description": "representative point"
      }
    },
    {
      "geometry": null,
      "id": "undetermined",
      "type": "Feature",
      "properties": {
        "description": null,
        "location_precision": "unlocated",
        "title": "Undetermined location",
        "link": "http://pleiades.stoa.org/places/730163/undetermined"
      }
    }
  ]
}