{
  "type": "FeatureCollection",
  "title": "Nuraghe Domu Beccia",
  "id": "732014845",
  "bbox": [
    8.7099997,
    39.6895836,
    8.7103683,
    39.6898673
  ],
  "description": "A nuragic complex near Uras, Sardinia.",
  "connectsWith": [
    "472014"
  ],
  "names": [
    "Nuraghe Domu Beccia⁠"
  ],
  "features": [
    {
      "type": "Feature",
      "geometry": {
        "type": "Point",
        "coordinates": [
          8.710184,
          39.6897254748
        ]
      },
      "properties": {
        "description": "representative point"
      }
    },
    {
      "geometry": {
        "type": "LineString",
        "coordinates": [
          [
            8.7103683,
            39.6897255
          ],
          [
            8.7103436,
            39.6897964
          ],
          [
            8.7102762,
            39.6898483
          ],
          [
            8.710184,
            39.6898673
          ],
          [
            8.7100918,
            39.6898483
          ],
          [
            8.7100244,
            39.6897964
          ],
          [
            8.7099997,
            39.6897255
          ],
          [
            8.7100244,
            39.6896545
          ],
          [
            8.7100918,
            39.6896027
          ],
          [
            8.710184,
            39.6895836
          ],
          [
            8.7102762,
            39.6896027
          ],
          [
            8.7103436,
            39.6896545
          ],
          [
            8.7103683,
            39.6897255
          ]
        ]
      },
      "id": "location-of-nuraghe-domu-beccia",
      "type": "Feature",
      "properties": {
        "description": "Representative ocation based on OpenStreetMap.",
        "location_precision": "precise",
        "title": "OSM location of Nuraghe Domu Beccia",
        "link": "http://pleiades.stoa.org/places/732014845/location-of-nuraghe-domu-beccia"
      }
    }
  ]
}