{
  "type": "FeatureCollection",
  "title": "Esterzili",
  "id": "739961553",
  "bbox": [
    9.3268486,
    39.7483939,
    9.3278624,
    39.7490002
  ],
  "description": "The Domu de Orgia at Esterzili is the largest nuragic \"megaron\" structure thus far discovered in Sardinia.",
  "connectsWith": [
    "472014"
  ],
  "features": [
    {
      "type": "Feature",
      "geometry": {
        "type": "Point",
        "coordinates": [
          9.32737014889,
          39.7486876076
        ]
      },
      "properties": {
        "description": "representative point"
      }
    },
    {
      "geometry": {
        "type": "LineString",
        "coordinates": [
          [
            9.3273206,
            39.7490002
          ],
          [
            9.327149,
            39.7488352
          ],
          [
            9.3270524,
            39.748763
          ],
          [
            9.3270202,
            39.7487094
          ],
          [
            9.3268486,
            39.7486228
          ],
          [
            9.3270041,
            39.7485382
          ],
          [
            9.3271812,
            39.7484454
          ],
          [
            9.3272804,
            39.7483939
          ],
          [
            9.3273555,
            39.7484021
          ],
          [
            9.3274574,
            39.7484496
          ],
          [
            9.3275593,
            39.7485094
          ],
          [
            9.327613,
            39.7485671
          ],
          [
            9.3277551,
            39.7486145
          ],
          [
            9.3278624,
            39.7486558
          ],
          [
            9.3278329,
            39.748763
          ],
          [
            9.3278142,
            39.7488311
          ],
          [
            9.3273206,
            39.7490002
          ]
        ]
      },
      "id": "osm-location",
      "type": "Feature",
      "properties": {
        "description": "Location based on OpenStreetMap",
        "location_precision": "precise",
        "title": "OSM location of Esterzili, Tempio di Domu de Orgia",
        "link": "http://pleiades.stoa.org/places/739961553/osm-location"
      }
    }
  ]
}