{
  "type": "FeatureCollection",
  "title": "Pyramidal tomb of the Via Appia",
  "id": "754594357",
  "bbox": [
    12.5463751,
    41.829237,
    12.5465621,
    41.829372
  ],
  "description": "A pyramid-shaped Roman tomb located along the Appian Way that may have belonged to the family of the Quintilii.",
  "features": [
    {
      "type": "Feature",
      "geometry": {
        "type": "Point",
        "coordinates": [
          12.5464680831,
          41.8293044118
        ]
      },
      "properties": {
        "description": "representative point"
      }
    },
    {
      "geometry": {
        "type": "LineString",
        "coordinates": [
          [
            12.5464917,
            41.829372
          ],
          [
            12.546525,
            41.8293492
          ],
          [
            12.5465621,
            41.8293176
          ],
          [
            12.5465604,
            41.829294
          ],
          [
            12.5465393,
            41.829275
          ],
          [
            12.5464696,
            41.829237
          ],
          [
            12.54644,
            41.829237
          ],
          [
            12.5463998,
            41.829267
          ],
          [
            12.5463751,
            41.8292928
          ],
          [
            12.5463801,
            41.8293235
          ],
          [
            12.5464594,
            41.8293704
          ],
          [
            12.5464917,
            41.829372
          ]
        ]
      },
      "id": "osm-location-of-sepolcro-a-piramide",
      "type": "Feature",
      "properties": {
        "description": "Representative location based on OpenStreetMap",
        "location_precision": "precise",
        "title": "OSM location of Sepolcro a piramide",
        "link": "http://pleiades.stoa.org/places/754594357/osm-location-of-sepolcro-a-piramide"
      }
    }
  ]
}