{
  "type": "FeatureCollection",
  "title": "Porta Nord",
  "id": "785966254",
  "bbox": [
    12.8251617,
    37.5860148,
    12.8251617,
    37.5860148
  ],
  "description": "The so-called \"north gate\" of Selinus dates to the fifth century BCE.",
  "connectsWith": [
    "462489"
  ],
  "features": [
    {
      "type": "Feature",
      "geometry": {
        "type": "Point",
        "coordinates": [
          12.8251617,
          37.5860148
        ]
      },
      "properties": {
        "description": "representative point"
      }
    },
    {
      "geometry": {
        "type": "Point",
        "coordinates": [
          12.8251617,
          37.5860148
        ]
      },
      "id": "osm-location-of-porta-nord",
      "type": "Feature",
      "properties": {
        "description": "Representative location based on OpenStreetMap",
        "location_precision": "precise",
        "title": "OSM location of Porta Nord",
        "link": "http://pleiades.stoa.org/places/785966254/osm-location-of-porta-nord"
      }
    }
  ]
}