{
  "type": "FeatureCollection",
  "title": "Casa di M. Pupius Rufus",
  "id": "800144977",
  "bbox": [
    14.48445,
    40.75244,
    14.48445,
    40.75244
  ],
  "description": "Property in Pompeii excavated in 1895.",
  "names": [
    "Casa di M. Pupius Rufus"
  ],
  "features": [
    {
      "type": "Feature",
      "geometry": {
        "type": "Point",
        "coordinates": [
          14.48445,
          40.75244
        ]
      },
      "properties": {
        "description": "representative point"
      }
    },
    {
      "geometry": {
        "type": "Point",
        "coordinates": [
          14.48445,
          40.75244
        ]
      },
      "id": "wikidata-location",
      "type": "Feature",
      "properties": {
        "description": "Representative location derived from Wikidata",
        "location_precision": "precise",
        "title": "Wikidata Location",
        "link": "http://pleiades.stoa.org/places/800144977/wikidata-location"
      }
    }
  ]
}