{
  "type": "FeatureCollection",
  "title": "Domus Aventino",
  "id": "809448306",
  "bbox": [
    12.4836327,
    41.8808258,
    12.4836327,
    41.8808258
  ],
  "description": "The so-called \"Domus Aventino\" is located near the Piazza Albania on the Aventine Hill in Rome. This archaeological site was identified in 2014 and preserves multiple phases of human activity, including elements of Rome's archaic fortifications and the remains of a well-appointed domus.",
  "connectsWith": [
    "423025",
    "865014139"
  ],
  "features": [
    {
      "type": "Feature",
      "geometry": {
        "type": "Point",
        "coordinates": [
          12.4836327,
          41.8808258
        ]
      },
      "properties": {
        "description": "representative point"
      }
    },
    {
      "geometry": {
        "type": "Point",
        "coordinates": [
          12.4836327,
          41.8808258
        ]
      },
      "id": "osm-location-of-scatola-archeologica",
      "type": "Feature",
      "properties": {
        "description": "Location based on OpenStreetMap",
        "location_precision": "precise",
        "title": "OSM location of Scatola Archeologica",
        "link": "http://pleiades.stoa.org/places/809448306/osm-location-of-scatola-archeologica"
      }
    }
  ]
}