{
  "type": "FeatureCollection",
  "title": "Darae",
  "id": "814670",
  "bbox": [
    36.0,
    26.0,
    37.0,
    27.0
  ],
  "description": "The Darae were an ancient Arab tribe located on the Arabian Gulf. Ptolemy mentions them together with the Thamyditai. Pliny the Elder refers to the \"gens Darrae\" of the South Arabian coast.",
  "names": [
    "Darae"
  ],
  "features": [
    {
      "type": "Feature",
      "geometry": {
        "type": "Point",
        "coordinates": [
          36.5,
          26.5
        ]
      },
      "properties": {
        "description": "representative point"
      }
    },
    {
      "geometry": {
        "type": "Polygon",
        "coordinates": [
          [
            [
              36.0,
              26.0
            ],
            [
              36.0,
              27.0
            ],
            [
              37.0,
              27.0
            ],
            [
              37.0,
              26.0
            ],
            [
              36.0,
              26.0
            ]
          ]
        ]
      },
      "id": "undetermined",
      "type": "Feature",
      "properties": {
        "description": null,
        "location_precision": "rough",
        "title": "Undetermined location",
        "link": "http://pleiades.stoa.org/places/814670/undetermined"
      }
    }
  ]
}