{
  "type": "FeatureCollection",
  "title": "Aktil Höyüğü",
  "id": "817592339",
  "bbox": [
    37.4189984,
    38.3658049,
    37.4202522,
    38.366723
  ],
  "description": "Aktil Höyük is an archaeological site with evidence of human habitation in both the Chalcolithic Age and the Bronze Age.",
  "features": [
    {
      "type": "Feature",
      "geometry": {
        "type": "Point",
        "coordinates": [
          37.4196277743,
          38.366258389
        ]
      },
      "properties": {
        "description": "representative point"
      }
    },
    {
      "geometry": {
        "type": "LineString",
        "coordinates": [
          [
            37.4201516,
            38.3665329
          ],
          [
            37.4202522,
            38.3662593
          ],
          [
            37.4202108,
            38.3660507
          ],
          [
            37.41985,
            38.3658559
          ],
          [
            37.4194005,
            38.3658049
          ],
          [
            37.4191167,
            38.3659579
          ],
          [
            37.4189984,
            38.3662037
          ],
          [
            37.4190457,
            38.3664077
          ],
          [
            37.4192763,
            38.3666257
          ],
          [
            37.4196016,
            38.366723
          ],
          [
            37.4198855,
            38.3666906
          ],
          [
            37.4201516,
            38.3665329
          ]
        ]
      },
      "id": "osm-location-of-aktil-hapya1-4aa1-4",
      "type": "Feature",
      "properties": {
        "description": "Location based on OpenStreetMap",
        "location_precision": "precise",
        "title": "OSM location of Aktil Höyüğü",
        "link": "http://pleiades.stoa.org/places/817592339/osm-location-of-aktil-hapya1-4aa1-4"
      }
    }
  ]
}