{
  "type": "FeatureCollection",
  "title": "Tomb of the Greek Cross",
  "id": "832841466",
  "bbox": [
    12.5962149,
    41.7844112,
    12.5963107,
    41.7844832
  ],
  "description": "A tomb located at the tenth mile of the Via Appia.",
  "connectsWith": [
    "356966898"
  ],
  "names": [
    "Tomb of the Greek Cross"
  ],
  "features": [
    {
      "type": "Feature",
      "geometry": {
        "type": "Point",
        "coordinates": [
          12.5962628,
          41.7844472
        ]
      },
      "properties": {
        "description": "representative point"
      }
    },
    {
      "geometry": {
        "type": "LineString",
        "coordinates": [
          [
            12.5962643,
            41.7844832
          ],
          [
            12.5962149,
            41.784452
          ],
          [
            12.5962613,
            41.7844112
          ],
          [
            12.5963107,
            41.7844424
          ],
          [
            12.5962643,
            41.7844832
          ]
        ]
      },
      "id": "osm-location-of-tombe-a-croix-grecque",
      "type": "Feature",
      "properties": {
        "description": "Location based on OpenStreetMap",
        "location_precision": "precise",
        "title": "OSM location of Tombe à croix grecque",
        "link": "http://pleiades.stoa.org/places/832841466/osm-location-of-tombe-a-croix-grecque"
      }
    }
  ]
}