{
  "type": "FeatureCollection",
  "title": "Punta Milazzese",
  "id": "837661672",
  "bbox": [
    15.0631583,
    38.6251851,
    15.0636421,
    38.6256874
  ],
  "description": "A prehistoric village was situated on the promontory of Punta Milazzese at Panarea in Sicily. This Middle Bronze Age village (fourteenth to thirteenth centuries BCE) was identified in 1948 by Luigi Bernabò Brea. Excavations were carried out in 1949-1950 and again in 2008-2009. The material culture of the site results in the eponymous \"Milazzese culture\".",
  "names": [
    "Prehistoric village (Panarea)"
  ],
  "features": [
    {
      "type": "Feature",
      "geometry": {
        "type": "Point",
        "coordinates": [
          15.0634174434,
          38.6254255262
        ]
      },
      "properties": {
        "description": "representative point"
      }
    },
    {
      "geometry": {
        "type": "LineString",
        "coordinates": [
          [
            15.0634893,
            38.6256824
          ],
          [
            15.0635593,
            38.6256874
          ],
          [
            15.0636262,
            38.6256575
          ],
          [
            15.0636421,
            38.625573
          ],
          [
            15.0636389,
            38.6255059
          ],
          [
            15.0635869,
            38.6255121
          ],
          [
            15.0635372,
            38.6254329
          ],
          [
            15.0635434,
            38.6254114
          ],
          [
            15.0635211,
            38.6253492
          ],
          [
            15.063467,
            38.6252896
          ],
          [
            15.0633334,
            38.6251851
          ],
          [
            15.0632156,
            38.6251926
          ],
          [
            15.0631583,
            38.6252125
          ],
          [
            15.0631902,
            38.6253194
          ],
          [
            15.0632252,
            38.6253741
          ],
          [
            15.0633206,
            38.6254363
          ],
          [
            15.0634066,
            38.6255233
          ],
          [
            15.0634191,
            38.6255964
          ],
          [
            15.0634511,
            38.6256526
          ],
          [
            15.0634893,
            38.6256824
          ]
        ]
      },
      "id": "osm-location-of-cala-junco",
      "type": "Feature",
      "properties": {
        "description": "Representative location based on OpenStreetMap",
        "location_precision": "precise",
        "title": "OSM location of Cala Junco",
        "link": "http://pleiades.stoa.org/places/837661672/osm-location-of-cala-junco"
      }
    }
  ]
}