{
  "type": "FeatureCollection",
  "title": "Tomba Lattanzi, Norchia",
  "id": "839097640",
  "bbox": [
    11.943567,
    42.342917,
    11.943567,
    42.342917
  ],
  "description": "A Hellenistic, rock-cut tomb at Norchia. The site is located within the modern municipal boundaries of Viterbo in Lazio, Italy.",
  "connectsWith": [
    "413233"
  ],
  "names": [
    "Tomba Lattanzi"
  ],
  "features": [
    {
      "type": "Feature",
      "geometry": {
        "type": "Point",
        "coordinates": [
          11.943567,
          42.342917
        ]
      },
      "properties": {
        "description": "representative point"
      }
    },
    {
      "geometry": {
        "type": "Point",
        "coordinates": [
          11.943567,
          42.342917
        ]
      },
      "id": "osm-location-tomba-lattanzi",
      "type": "Feature",
      "properties": {
        "description": "Representative location based on OpenStreetMap",
        "location_precision": "precise",
        "title": "OSM location: Tomba Lattanzi",
        "link": "http://pleiades.stoa.org/places/839097640/osm-location-tomba-lattanzi"
      }
    }
  ]
}