{
  "type": "FeatureCollection",
  "title": "Darucinte/Tareina?/Horonon?",
  "id": "874448",
  "bbox": [
    40.047249,
    39.947208,
    40.047249,
    39.947208
  ],
  "description": "Darucinte/Tareina?/Horonon? was an ancient road station on the road from Satala to Artaxata, 40 Roman miles beyond Satala and 20 Roman miles before Aegea.",
  "names": [
    "Darucinte",
    "Tareina",
    "Horonon"
  ],
  "features": [
    {
      "type": "Feature",
      "geometry": {
        "type": "Point",
        "coordinates": [
          40.047249,
          39.947208
        ]
      },
      "properties": {
        "description": "representative point"
      }
    },
    {
      "geometry": {
        "type": "Point",
        "coordinates": [
          40.047249,
          39.947208
        ]
      },
      "id": "darmc-location-22051",
      "type": "Feature",
      "properties": {
        "description": "Point location",
        "location_precision": "precise",
        "title": "DARMC location 22051",
        "link": "http://pleiades.stoa.org/places/874448/darmc-location-22051"
      }
    }
  ]
}