{
  "type": "FeatureCollection",
  "title": "Worlebury Camp",
  "id": "893850615",
  "bbox": [
    -2.9866479,
    51.3575334,
    -2.9866479,
    51.3575334
  ],
  "description": "Worlebury Camp is the site of an Iron Age hill fort in Somerset, England.",
  "names": [
    "Worlebury Camp⁠"
  ],
  "features": [
    {
      "type": "Feature",
      "geometry": {
        "type": "Point",
        "coordinates": [
          -2.9866479,
          51.3575334
        ]
      },
      "properties": {
        "description": "representative point"
      }
    },
    {
      "geometry": {
        "type": "Point",
        "coordinates": [
          -2.9866479,
          51.3575334
        ]
      },
      "id": "osm-location-of-worlebury-camp",
      "type": "Feature",
      "properties": {
        "description": "Representative location based on OpenStreetMap",
        "location_precision": "precise",
        "title": "OSM location of Worlebury Camp",
        "link": "http://pleiades.stoa.org/places/893850615/osm-location-of-worlebury-camp"
      }
    }
  ]
}