{
  "type": "FeatureCollection",
  "title": "Denabaran/Dinawar",
  "id": "903012",
  "bbox": [
    47.462217,
    34.617525,
    47.462217,
    34.617525
  ],
  "description": "An ancient city of Media (modern western Iran) that was known to 19th and early 20th century scholars and collectors. The site was largely looted out by the early 20th century and never received a modern systematic archaeological excavation.",
  "names": [
    "Denabaran",
    "Dinawar",
    "Dīnever",
    "Dīnāver"
  ],
  "features": [
    {
      "type": "Feature",
      "geometry": {
        "type": "Point",
        "coordinates": [
          47.462217,
          34.617525
        ]
      },
      "properties": {
        "description": "representative point"
      }
    },
    {
      "geometry": {
        "type": "Point",
        "coordinates": [
          47.462217,
          34.617525
        ]
      },
      "id": "imagery-location",
      "type": "Feature",
      "properties": {
        "description": "Location as determined from archival records and analysis published in Lindström 2025.",
        "location_precision": "precise",
        "title": "Imagery Location",
        "link": "http://pleiades.stoa.org/places/903012/imagery-location"
      }
    }
  ]
}