{
  "type": "FeatureCollection",
  "title": "Uley Bury Camp",
  "id": "913222791",
  "bbox": [
    -2.312461,
    51.688682,
    -2.312461,
    51.688682
  ],
  "description": "An Iron Age hillfort active from ca. 300 BCE to 100 CE. A large quantity of Neolithic flints and finds suggests that a settlement also existed during this period.",
  "features": [
    {
      "type": "Feature",
      "geometry": {
        "type": "Point",
        "coordinates": [
          -2.312461,
          51.688682
        ]
      },
      "properties": {
        "description": "representative point"
      }
    },
    {
      "geometry": {
        "type": "Point",
        "coordinates": [
          -2.312461,
          51.688682
        ]
      },
      "id": "nhle-location-uley-bury",
      "type": "Feature",
      "properties": {
        "description": null,
        "location_precision": "precise",
        "title": "NHLE location: Uley Bury",
        "link": "http://pleiades.stoa.org/places/913222791/nhle-location-uley-bury"
      }
    }
  ]
}