{
  "type": "FeatureCollection",
  "title": "Roman baths of Taormina",
  "id": "937547559",
  "bbox": [
    15.2888798,
    37.8539221,
    15.2892858,
    37.8542421
  ],
  "description": "The Roman baths of Taormina are built atop a public building of the Hellenistic period. The Roman baths originally fronted on the forum and were expanded in the second century.",
  "connectsWith": [
    "462506"
  ],
  "names": [
    "Roman baths of Taormina"
  ],
  "features": [
    {
      "type": "Feature",
      "geometry": {
        "type": "Point",
        "coordinates": [
          15.2890714253,
          37.8540990506
        ]
      },
      "properties": {
        "description": "representative point"
      }
    },
    {
      "geometry": {
        "type": "LineString",
        "coordinates": [
          [
            15.2891156,
            37.8539221
          ],
          [
            15.2889373,
            37.8540151
          ],
          [
            15.2889741,
            37.8540857
          ],
          [
            15.2888798,
            37.8541146
          ],
          [
            15.2889607,
            37.8542421
          ],
          [
            15.289178,
            37.8541976
          ],
          [
            15.2892858,
            37.8541528
          ],
          [
            15.2891156,
            37.8539221
          ]
        ]
      },
      "id": "osm-location-of-terme-romane",
      "type": "Feature",
      "properties": {
        "description": "Representative location based on OpenStreetMap.",
        "location_precision": "precise",
        "title": "OSM location of Terme Romane",
        "link": "http://pleiades.stoa.org/places/937547559/osm-location-of-terme-romane"
      }
    }
  ]
}