{
  "type": "FeatureCollection",
  "title": "Sé Girdan",
  "id": "952485717",
  "bbox": [
    45.1648488,
    37.0051643,
    45.1689759,
    37.0082669
  ],
  "description": "A series of conical tumuli near the Iranian village of Cheshmé Göl. The tumuli were initially identified by Sir Aurel Stein in 1936. They were subsequently investigated by Oscar White Muscarella. The site is located some 5 km east of Dinkha Tepe in the Ushnu valley.",
  "connectsWith": [
    "947719521"
  ],
  "features": [
    {
      "type": "Feature",
      "geometry": {
        "type": "Point",
        "coordinates": [
          45.1669774041,
          37.0066767565
        ]
      },
      "properties": {
        "description": "representative point"
      }
    }
  ]
}