{
  "type": "FeatureCollection",
  "title": "Laphystios (Mountain)",
  "id": "973726783",
  "bbox": [
    22.9166,
    38.4151,
    22.9166,
    38.4151
  ],
  "description": "A mountain in Livadia, Boeotia. Modern Gardavitsa.",
  "names": [
    "Laphystios",
    "Gardavitsa"
  ],
  "features": [
    {
      "type": "Feature",
      "geometry": {
        "type": "Point",
        "coordinates": [
          22.9166,
          38.4151
        ]
      },
      "properties": {
        "description": "representative point"
      }
    },
    {
      "geometry": {
        "type": "Point",
        "coordinates": [
          22.9166,
          38.4151
        ]
      },
      "id": "topostext-location",
      "type": "Feature",
      "properties": {
        "description": "Representative location derived from Topostext",
        "location_precision": "precise",
        "title": "Topostext Location",
        "link": "http://pleiades.stoa.org/places/973726783/topostext-location"
      }
    }
  ]
}