{
  "type": "FeatureCollection",
  "title": "Gallaecia",
  "id": "991317",
  "bbox": [
    -8.4985586881,
    42.1047745885,
    -7.58002725332,
    43.3100330574
  ],
  "description": "The province of Gallaecia, also known as Hispania Gallaecia, was a Roman province in the north-west of Hispania.",
  "names": [
    "Gallaecia"
  ],
  "features": [
    {
      "type": "Feature",
      "geometry": {
        "type": "Point",
        "coordinates": [
          -8.25359799148,
          42.1308685419
        ]
      },
      "properties": {
        "description": "representative point"
      }
    }
  ]
}